{
"type": "FeatureCollection",
"name": "points_eau_avec_fri",
"crs": { "type": "name", "properties": { "name": "urn:ogc:def:crs:EPSG::32631" } },
"features": [
{ "type": "Feature", "properties": { "type_source": "COSO", "region": "CENTRALE", "commune": "TCHAMBA 3", "canton": "BALANKA", "nom_ouvrage": "ALEGBA", "existence_of_maintenance_plan": "True", "current_status_of_the_site": "Réception définitive", "index_right": 56637.0, "grid_id": 56637.0, "FRI": 0.0096013681877704996, "niveau_risque_inondation": "Faible" }, "geometry": { "type": "Point", "coordinates": [ 346798.22212723235134, 975686.016457369085401 ] } },
{ "type": "Feature", "properties": { "type_source": "COSO", "region": "CENTRALE", "commune": "TCHAMBA 3", "canton": "BALANKA", "nom_ouvrage": "ATONTOMI", "existence_of_maintenance_plan": "True", "current_status_of_the_site": "Réception définitive", "index_right": 55745.0, "grid_id": 55745.0, "FRI": 0.0084874542854134812, "niveau_risque_inondation": "Faible" }, "geometry": { "type": "Point", "coordinates": [ 343553.585919203003868, 982771.848579869838431 ] } },
{ "type": "Feature", "properties": { "type_source": "COSO", "region": "CENTRALE", "commune": "TCHAMBA 3", "canton": "BALANKA", "nom_ouvrage": "BELAGNI", "existence_of_maintenance_plan": "False", "current_status_of_the_site": "Réception provisoire", "index_right": 56926.0, "grid_id": 56926.0, "FRI": 0.016862407059376455, "niveau_risque_inondation": "Faible" }, "geometry": { "type": "Point", "coordinates": [ 347710.71350594679825, 986112.599141557118855 ] } },
{ "type": "Feature", "properties": { "type_source": "COSO", "region": "CENTRALE", "commune": "TCHAMBA 3", "canton": "KABOLI", "nom_ouvrage": "AGBANSIKITI", "existence_of_maintenance_plan": "False", "current_status_of_the_site": "Réception définitive", "index_right": 56901.0, "grid_id": 56901.0, "FRI": 0.013995423871449364, "niveau_risque_inondation": "Faible" }, "geometry": { "type": "Point", "coordinates": [ 348150.430657926946878, 961021.437732898746617 ] } },
{ "type": "Feature", "properties": { "type_source": "COSO", "region": "CENTRALE", "commune": "TCHAMBA 3", "canton": "KABOLI", "nom_ouvrage": "ATAFA 2", "existence_of_maintenance_plan": "True", "current_status_of_the_site": "Réception provisoire", "index_right": 55087.0, "grid_id": 55087.0, "FRI": 0.018608234737731585, "niveau_risque_inondation": "Faible" }, "geometry": { "type": "Point", "coordinates": [ 341970.002421355922706, 961375.948995637940243 ] } },
{ "type": "Feature", "properties": { "type_source": "COSO", "region": "CENTRALE", "commune": "TCHAMBA 3", "canton": "KABOLI", "nom_ouvrage": "BOLEA", "existence_of_maintenance_plan": "False", "current_status_of_the_site": "Réception définitive", "index_right": 56605.0, "grid_id": 56605.0, "FRI": 0.016266251975938943, "niveau_risque_inondation": "Faible" }, "geometry": { "type": "Point", "coordinates": [ 347303.978542284981813, 943013.131127705448307 ] } },
{ "type": "Feature", "properties": { "type_source": "COSO", "region": "CENTRALE", "commune": "TCHAMBA 3", "canton": "KABOLI", "nom_ouvrage": "DOGODE", "existence_of_maintenance_plan": "False", "current_status_of_the_site": "Réception définitive", "index_right": 57175.0, "grid_id": 57175.0, "FRI": 0.018910879432291972, "niveau_risque_inondation": "Faible" }, "geometry": { "type": "Point", "coordinates": [ 349417.781724834290799, 971550.51707875134889 ] } },
{ "type": "Feature", "properties": { "type_source": "COSO", "region": "CENTRALE", "commune": "TCHAMBA 3", "canton": "KABOLI", "nom_ouvrage": "KALA 2", "existence_of_maintenance_plan": "True", "current_status_of_the_site": "Réception provisoire", "index_right": 56332.0, "grid_id": 56332.0, "FRI": 0.01201553127298176, "niveau_risque_inondation": "Faible" }, "geometry": { "type": "Point", "coordinates": [ 346433.288701743469574, 959047.419339962536469 ] } },
{ "type": "Feature", "properties": { "type_source": "COSO", "region": "CENTRALE", "commune": "TCHAMBA 3", "canton": "KABOLI", "nom_ouvrage": "ODORIN", "existence_of_maintenance_plan": "True", "current_status_of_the_site": "Réception définitive", "index_right": 56890.0, "grid_id": 56890.0, "FRI": 0.01132063630226144, "niveau_risque_inondation": "Faible" }, "geometry": { "type": "Point", "coordinates": [ 347803.567530744185206, 950308.980340208276175 ] } },
{ "type": "Feature", "properties": { "type_source": "COSO", "region": "CENTRALE", "commune": "TCHAMBA 3", "canton": "KABOLI", "nom_ouvrage": "SOLIMBIA", "existence_of_maintenance_plan": "False", "current_status_of_the_site": "Réception définitive", "index_right": 56909.0, "grid_id": 56909.0, "FRI": 0.016079361741000674, "niveau_risque_inondation": "Faible" }, "geometry": { "type": "Point", "coordinates": [ 347945.663823229144327, 969108.377998885465786 ] } },
{ "type": "Feature", "properties": { "type_source": "COSO", "region": "KARA", "commune": "BINAH 1", "canton": "PAGOUDA", "nom_ouvrage": "ASSERE", "existence_of_maintenance_plan": "True", "current_status_of_the_site": "Réception définitive", "index_right": 44596.0, "grid_id": 44596.0, "FRI": 0.014694801719137942, "niveau_risque_inondation": "Faible" }, "geometry": { "type": "Point", "coordinates": [ 313350.564325091429055, 1083755.794922022847459 ] } },
{ "type": "Feature", "properties": { "type_source": "COSO", "region": "KARA", "commune": "BINAH 1", "canton": "PAGOUDA", "nom_ouvrage": "KAGNISSI", "existence_of_maintenance_plan": "True", "current_status_of_the_site": "Réception définitive", "index_right": 45452.0, "grid_id": 45452.0, "FRI": 0.01360604416391667, "niveau_risque_inondation": "Faible" }, "geometry": { "type": "Point", "coordinates": [ 314897.113505234883633, 1079766.220976326148957 ] } },
{ "type": "Feature", "properties": { "type_source": "COSO", "region": "KARA", "commune": "BINAH 1", "canton": "PAGOUDA", "nom_ouvrage": "KAWA", "existence_of_maintenance_plan": "True", "current_status_of_the_site": "Réception définitive", "index_right": 45021.0, "grid_id": 45021.0, "FRI": 0.015493560375532414, "niveau_risque_inondation": "Faible" }, "geometry": { "type": "Point", "coordinates": [ 314392.445517310115974, 1077110.036080063087866 ] } },
{ "type": "Feature", "properties": { "type_source": "COSO", "region": "KARA", "commune": "BINAH 1", "canton": "PAGOUDA", "nom_ouvrage": "KPANAHORE", "existence_of_maintenance_plan": "True", "current_status_of_the_site": "Réception définitive", "index_right": 46307.0, "grid_id": 46307.0, "FRI": 0.018045413615919461, "niveau_risque_inondation": "Faible" }, "geometry": { "type": "Point", "coordinates": [ 316969.177126201801002, 1078622.547525660600513 ] } },
{ "type": "Feature", "properties": { "type_source": "COSO", "region": "KARA", "commune": "BINAH 1", "canton": "PAGOUDA", "nom_ouvrage": "SOMSIA", "existence_of_maintenance_plan": "True", "current_status_of_the_site": "Réception définitive", "index_right": 45874.0, "grid_id": 45874.0, "FRI": 0.010999080538326383, "niveau_risque_inondation": "Faible" }, "geometry": { "type": "Point", "coordinates": [ 315536.108492249040864, 1073883.197078552795574 ] } },
{ "type": "Feature", "properties": { "type_source": "COSO", "region": "KARA", "commune": "BINAH 1", "canton": "PAGOUDA", "nom_ouvrage": "WAZE", "existence_of_maintenance_plan": "True", "current_status_of_the_site": "Réception définitive", "index_right": 45878.0, "grid_id": 45878.0, "FRI": 0.019506040190102828, "niveau_risque_inondation": "Faible" }, "geometry": { "type": "Point", "coordinates": [ 315803.024438581080176, 1077649.204045437276363 ] } },
{ "type": "Feature", "properties": { "type_source": "COSO", "region": "KARA", "commune": "BINAH 2", "canton": "KETAO", "nom_ouvrage": "KADJANGA", "existence_of_maintenance_plan": "True", "current_status_of_the_site": "Réception définitive", "index_right": 47152.0, "grid_id": 47152.0, "FRI": 0.012294321937355057, "niveau_risque_inondation": "Faible" }, "geometry": { "type": "Point", "coordinates": [ 319174.369014437892474, 1075371.251253012567759 ] } },
{ "type": "Feature", "properties": { "type_source": "COSO", "region": "KARA", "commune": "BINAH 2", "canton": "KETAO", "nom_ouvrage": "TERODA", "existence_of_maintenance_plan": "True", "current_status_of_the_site": "Réception définitive", "index_right": 47563.0, "grid_id": 47563.0, "FRI": 0.026600312293773479, "niveau_risque_inondation": "Faible" }, "geometry": { "type": "Point", "coordinates": [ 319801.586213513975963, 1069507.349124983651564 ] } },
{ "type": "Feature", "properties": { "type_source": "COSO", "region": "SAVANES", "commune": "CINKASSE 1", "canton": "BOADE", "nom_ouvrage": "BOADE CENTRE", "existence_of_maintenance_plan": "True", "current_status_of_the_site": "Réception définitive", "index_right": null, "grid_id": null, "FRI": null, "niveau_risque_inondation": null }, "geometry": { "type": "Point", "coordinates": [ 163398.51348332449561, 1232930.835232282755896 ] } },
{ "type": "Feature", "properties": { "type_source": "COSO", "region": "SAVANES", "commune": "CINKASSE 1", "canton": "BOADE", "nom_ouvrage": "NAPOGO", "existence_of_maintenance_plan": "False", "current_status_of_the_site": "Réception définitive", "index_right": 42.0, "grid_id": 42.0, "FRI": 0.011007984786278822, "niveau_risque_inondation": "Faible" }, "geometry": { "type": "Point", "coordinates": [ 163302.921779231925029, 1229876.165143769932911 ] } },
{ "type": "Feature", "properties": { "type_source": "COSO", "region": "SAVANES", "commune": "CINKASSE 1", "canton": "BOADE", "nom_ouvrage": "SANDOGO", "existence_of_maintenance_plan": "False", "current_status_of_the_site": "Réception définitive", "index_right": 84.0, "grid_id": 84.0, "FRI": 0.020732756288395118, "niveau_risque_inondation": "Faible" }, "geometry": { "type": "Point", "coordinates": [ 164883.535972947196569, 1228743.52745408588089 ] } },
{ "type": "Feature", "properties": { "type_source": "COSO", "region": "SAVANES", "commune": "CINKASSE 1", "canton": "BOADE", "nom_ouvrage": "WOURI-WOURI", "existence_of_maintenance_plan": "False", "current_status_of_the_site": "Réception définitive", "index_right": 192.0, "grid_id": 192.0, "FRI": 0.014009884861220973, "niveau_risque_inondation": "Faible" }, "geometry": { "type": "Point", "coordinates": [ 168556.0947117304313, 1230568.725885397056118 ] } },
{ "type": "Feature", "properties": { "type_source": "COSO", "region": "SAVANES", "commune": "CINKASSE 1", "canton": "BOADE", "nom_ouvrage": "ZAMISSI", "existence_of_maintenance_plan": "False", "current_status_of_the_site": "Réception définitive", "index_right": 83.0, "grid_id": 83.0, "FRI": 0.012773879754061513, "niveau_risque_inondation": "Faible" }, "geometry": { "type": "Point", "coordinates": [ 164928.154800581920426, 1227618.928757489426062 ] } },
{ "type": "Feature", "properties": { "type_source": "COSO", "region": "SAVANES", "commune": "CINKASSE 1", "canton": "BOADE", "nom_ouvrage": "ZINTANGO", "existence_of_maintenance_plan": "False", "current_status_of_the_site": "Réception définitive", "index_right": 44.0, "grid_id": 44.0, "FRI": 0.017507253854459563, "niveau_risque_inondation": "Faible" }, "geometry": { "type": "Point", "coordinates": [ 162874.108742384065408, 1231643.26297850930132 ] } },
{ "type": "Feature", "properties": { "type_source": "COSO", "region": "SAVANES", "commune": "CINKASSE 1", "canton": "CINKASSE", "nom_ouvrage": "BARGOUNDE", "existence_of_maintenance_plan": "False", "current_status_of_the_site": "Réception définitive", "index_right": 411.0, "grid_id": 411.0, "FRI": 0.016783221196695949, "niveau_risque_inondation": "Faible" }, "geometry": { "type": "Point", "coordinates": [ 173906.976277038804255, 1226663.010628049029037 ] } },
{ "type": "Feature", "properties": { "type_source": "COSO", "region": "SAVANES", "commune": "CINKASSE 1", "canton": "CINKASSE", "nom_ouvrage": "KODAGO", "existence_of_maintenance_plan": "True", "current_status_of_the_site": "Réception définitive", "index_right": 589.0, "grid_id": 589.0, "FRI": 0.012602102002645471, "niveau_risque_inondation": "Faible" }, "geometry": { "type": "Point", "coordinates": [ 176870.897487237933092, 1229083.887415849836543 ] } },
{ "type": "Feature", "properties": { "type_source": "COSO", "region": "SAVANES", "commune": "CINKASSE 1", "canton": "CINKASSE", "nom_ouvrage": "SAYODE", "existence_of_maintenance_plan": "False", "current_status_of_the_site": "Réception définitive", "index_right": 410.0, "grid_id": 410.0, "FRI": 0.016505039398197696, "niveau_risque_inondation": "Faible" }, "geometry": { "type": "Point", "coordinates": [ 174349.564540314604528, 1225405.429646512959152 ] } },
{ "type": "Feature", "properties": { "type_source": "COSO", "region": "SAVANES", "commune": "CINKASSE 1", "canton": "CINKASSE", "nom_ouvrage": "TIMANGA (CINKASSE)", "existence_of_maintenance_plan": "True", "current_status_of_the_site": "Réception définitive", "index_right": 527.0, "grid_id": 527.0, "FRI": 0.024200119289359424, "niveau_risque_inondation": "Faible" }, "geometry": { "type": "Point", "coordinates": [ 175716.778211574535817, 1226846.545934317167848 ] } },
{ "type": "Feature", "properties": { "type_source": "COSO", "region": "SAVANES", "commune": "CINKASSE 1", "canton": "CINKASSE", "nom_ouvrage": "YIEGOU (CINKASSE)", "existence_of_maintenance_plan": "False", "current_status_of_the_site": "Réception définitive", "index_right": 529.0, "grid_id": 529.0, "FRI": 0.090751856171659234, "niveau_risque_inondation": "Modéré" }, "geometry": { "type": "Point", "coordinates": [ 176254.490794338402338, 1228448.73571847518906 ] } },
{ "type": "Feature", "properties": { "type_source": "COSO", "region": "SAVANES", "commune": "CINKASSE 1", "canton": "GNOAGA", "nom_ouvrage": "BINGOULA", "existence_of_maintenance_plan": "False", "current_status_of_the_site": "Réception définitive", "index_right": 43.0, "grid_id": 43.0, "FRI": 0.018402573275731027, "niveau_risque_inondation": "Faible" }, "geometry": { "type": "Point", "coordinates": [ 163375.723458335269243, 1230737.173590932739899 ] } },
{ "type": "Feature", "properties": { "type_source": "COSO", "region": "SAVANES", "commune": "CINKASSE 1", "canton": "GNOAGA", "nom_ouvrage": "GNOAGA CENTRE", "existence_of_maintenance_plan": "False", "current_status_of_the_site": "Réception définitive", "index_right": 22.0, "grid_id": 22.0, "FRI": 0.017470023243372344, "niveau_risque_inondation": "Faible" }, "geometry": { "type": "Point", "coordinates": [ 160915.460390745371114, 1229410.135359482606873 ] } },
{ "type": "Feature", "properties": { "type_source": "COSO", "region": "SAVANES", "commune": "CINKASSE 1", "canton": "GNOAGA", "nom_ouvrage": "YOUMAKOU", "existence_of_maintenance_plan": "False", "current_status_of_the_site": "Réception définitive", "index_right": 21.0, "grid_id": 21.0, "FRI": 0.017645501507078106, "niveau_risque_inondation": "Faible" }, "geometry": { "type": "Point", "coordinates": [ 160819.436615867132787, 1228729.455329694785178 ] } },
{ "type": "Feature", "properties": { "type_source": "COSO", "region": "SAVANES", "commune": "CINKASSE 1", "canton": "GOULOUNGOUSSI", "nom_ouvrage": "KODINZOAGA", "existence_of_maintenance_plan": "False", "current_status_of_the_site": "Réception définitive", "index_right": null, "grid_id": null, "FRI": null, "niveau_risque_inondation": null }, "geometry": { "type": "Point", "coordinates": [ 159918.46442735142773, 1233161.993092837976292 ] } },
{ "type": "Feature", "properties": { "type_source": "COSO", "region": "SAVANES", "commune": "CINKASSE 1", "canton": "GOULOUNGOUSSI", "nom_ouvrage": "KOULTAMSÉ", "existence_of_maintenance_plan": "False", "current_status_of_the_site": "Réception définitive", "index_right": 18.0, "grid_id": 18.0, "FRI": 0.01249352724115158, "niveau_risque_inondation": "Faible" }, "geometry": { "type": "Point", "coordinates": [ 160157.774334327317774, 1231592.348807947477326 ] } },
{ "type": "Feature", "properties": { "type_source": "COSO", "region": "SAVANES", "commune": "CINKASSE 1", "canton": "GOULOUNGOUSSI", "nom_ouvrage": "SINOGO", "existence_of_maintenance_plan": "False", "current_status_of_the_site": "Réception définitive", "index_right": 18.0, "grid_id": 18.0, "FRI": 0.01249352724115158, "niveau_risque_inondation": "Faible" }, "geometry": { "type": "Point", "coordinates": [ 160157.774334327317774, 1231592.348807947477326 ] } },
{ "type": "Feature", "properties": { "type_source": "COSO", "region": "SAVANES", "commune": "CINKASSE 1", "canton": "GOULOUNGOUSSI", "nom_ouvrage": "TENNOGO", "existence_of_maintenance_plan": "True", "current_status_of_the_site": "Réception définitive", "index_right": 16.0, "grid_id": 16.0, "FRI": 0.014527104780506221, "niveau_risque_inondation": "Faible" }, "geometry": { "type": "Point", "coordinates": [ 159957.119623335194774, 1229528.790118627250195 ] } },
{ "type": "Feature", "properties": { "type_source": "COSO", "region": "SAVANES", "commune": "CINKASSE 1", "canton": "GOULOUNGOUSSI", "nom_ouvrage": "ZOUBEKO", "existence_of_maintenance_plan": "False", "current_status_of_the_site": "Réception provisoire", "index_right": 6.0, "grid_id": 6.0, "FRI": 0.015193691423009182, "niveau_risque_inondation": "Faible" }, "geometry": { "type": "Point", "coordinates": [ 158308.895123055030126, 1229970.330728462897241 ] } },
{ "type": "Feature", "properties": { "type_source": "COSO", "region": "SAVANES", "commune": "CINKASSE 2", "canton": "TIMBOU", "nom_ouvrage": "DATOULONTE (TIMBOU)", "existence_of_maintenance_plan": "False", "current_status_of_the_site": "Réception définitive", "index_right": 1273.0, "grid_id": 1273.0, "FRI": 0.018083348755469086, "niveau_risque_inondation": "Faible" }, "geometry": { "type": "Point", "coordinates": [ 187591.291882676305249, 1216355.44476034049876 ] } },
{ "type": "Feature", "properties": { "type_source": "COSO", "region": "SAVANES", "commune": "CINKASSE 2", "canton": "TIMBOU", "nom_ouvrage": "NAMBUITITE TIMBOU", "existence_of_maintenance_plan": "False", "current_status_of_the_site": "Réception définitive", "index_right": 767.0, "grid_id": 767.0, "FRI": 0.017738910630290088, "niveau_risque_inondation": "Faible" }, "geometry": { "type": "Point", "coordinates": [ 179876.280200258595869, 1221236.643422877881676 ] } },
{ "type": "Feature", "properties": { "type_source": "COSO", "region": "SAVANES", "commune": "KPENDJAL 1", "canton": "KOUNDJOARE", "nom_ouvrage": "TOMONLE", "existence_of_maintenance_plan": "False", "current_status_of_the_site": "Réception provisoire", "index_right": 13656.0, "grid_id": 13656.0, "FRI": 0.021916924060023778, "niveau_risque_inondation": "Faible" }, "geometry": { "type": "Point", "coordinates": [ 245205.150643455330282, 1204223.154387242393568 ] } },
{ "type": "Feature", "properties": { "type_source": "COSO", "region": "SAVANES", "commune": "KPENDJAL 1", "canton": "MANDOURI", "nom_ouvrage": "MANDOURI CENTRE", "existence_of_maintenance_plan": "False", "current_status_of_the_site": "Réception définitive", "index_right": 21585.0, "grid_id": 21585.0, "FRI": 0.029203064464080514, "niveau_risque_inondation": "Faible" }, "geometry": { "type": "Point", "coordinates": [ 261438.204890684544807, 1199817.427873665466905 ] } },
{ "type": "Feature", "properties": { "type_source": "COSO", "region": "SAVANES", "commune": "OTI SUD 2", "canton": "NALI", "nom_ouvrage": "NALI ANGOH", "existence_of_maintenance_plan": "True", "current_status_of_the_site": "Réception provisoire", "index_right": 5140.0, "grid_id": 5140.0, "FRI": 0.02437231989783965, "niveau_risque_inondation": "Faible" }, "geometry": { "type": "Point", "coordinates": [ 220883.737328450544737, 1111523.030888626351953 ] } },
{ "type": "Feature", "properties": { "type_source": "COSO", "region": "SAVANES", "commune": "OTI SUD 1", "canton": "TCHAMONGA", "nom_ouvrage": "KARKOU", "existence_of_maintenance_plan": "True", "current_status_of_the_site": "Réception provisoire", "index_right": 19100.0, "grid_id": 19100.0, "FRI": 0.015663419399675551, "niveau_risque_inondation": "Faible" }, "geometry": { "type": "Point", "coordinates": [ 255841.201802955154562, 1159710.408908309647813 ] } },
{ "type": "Feature", "properties": { "type_source": "COSO", "region": "SAVANES", "commune": "OTI SUD 1", "canton": "TCHAMONGA", "nom_ouvrage": "IBASSANDJA", "existence_of_maintenance_plan": "True", "current_status_of_the_site": "Réception provisoire", "index_right": 18083.0, "grid_id": 18083.0, "FRI": 0.019447211988638049, "niveau_risque_inondation": "Faible" }, "geometry": { "type": "Point", "coordinates": [ 253569.010955375240883, 1160023.502237169304863 ] } },
{ "type": "Feature", "properties": { "type_source": "COSO", "region": "SAVANES", "commune": "TANDJOUARE 2", "canton": "TAMPIALIME", "nom_ouvrage": "SIBIOGUE", "existence_of_maintenance_plan": "False", "current_status_of_the_site": "Réception définitive", "index_right": 862.0, "grid_id": 862.0, "FRI": 0.014421693772814182, "niveau_risque_inondation": "Faible" }, "geometry": { "type": "Point", "coordinates": [ 181866.967263624712359, 1192211.951222757110372 ] } },
{ "type": "Feature", "properties": { "type_source": "COSO", "region": "SAVANES", "commune": "TANDJOUARE 2", "canton": "TAMPIALIME", "nom_ouvrage": "KPINKPARBAGOU 1", "existence_of_maintenance_plan": "True", "current_status_of_the_site": "Réception définitive", "index_right": 152.0, "grid_id": 152.0, "FRI": 0.016464648524976911, "niveau_risque_inondation": "Faible" }, "geometry": { "type": "Point", "coordinates": [ 168009.294632342061959, 1191633.678344451123849 ] } },
{ "type": "Feature", "properties": { "type_source": "COSO", "region": "SAVANES", "commune": "TANDJOUARE 2", "canton": "TAMPIALIME", "nom_ouvrage": "KOULMATIK-MIRE", "existence_of_maintenance_plan": "False", "current_status_of_the_site": "Réception provisoire", "index_right": 614.0, "grid_id": 614.0, "FRI": 0.013341887167187016, "niveau_risque_inondation": "Faible" }, "geometry": { "type": "Point", "coordinates": [ 177604.018654866784345, 1192856.440415169578046 ] } },
{ "type": "Feature", "properties": { "type_source": "COSO", "region": "SAVANES", "commune": "TANDJOUARE 2", "canton": "TAMPIALIME", "nom_ouvrage": "KPINKPARBAGOU 2", "existence_of_maintenance_plan": "True", "current_status_of_the_site": "Réception définitive", "index_right": 209.0, "grid_id": 209.0, "FRI": 0.012916460526149483, "niveau_risque_inondation": "Faible" }, "geometry": { "type": "Point", "coordinates": [ 170176.218120992300101, 1190932.812717826105654 ] } },
{ "type": "Feature", "properties": { "type_source": "COSO", "region": "SAVANES", "commune": "TANDJOUARE 2", "canton": "TAMPIALIME", "nom_ouvrage": "PIABRIBAGOU", "existence_of_maintenance_plan": "False", "current_status_of_the_site": "Réception définitive", "index_right": 1115.0, "grid_id": 1115.0, "FRI": 0.016735686172577448, "niveau_risque_inondation": "Faible" }, "geometry": { "type": "Point", "coordinates": [ 185810.455134664487559, 1193207.759614000562578 ] } },
{ "type": "Feature", "properties": { "type_source": "COSO", "region": "SAVANES", "commune": "TANDJOUARE 2", "canton": "TAMPIALIME", "nom_ouvrage": "NALONGUE 1", "existence_of_maintenance_plan": "True", "current_status_of_the_site": "Réception définitive", "index_right": 241.0, "grid_id": 241.0, "FRI": 0.020299541255761232, "niveau_risque_inondation": "Faible" }, "geometry": { "type": "Point", "coordinates": [ 171076.190540684736334, 1187822.096472295699641 ] } },
{ "type": "Feature", "properties": { "type_source": "COSO", "region": "SAVANES", "commune": "OTI 1", "canton": "MANGO", "nom_ouvrage": "MAGNA", "existence_of_maintenance_plan": "False", "current_status_of_the_site": "Réception provisoire", "index_right": 5379.0, "grid_id": 5379.0, "FRI": 0.12963363113432433, "niveau_risque_inondation": "Élevé" }, "geometry": { "type": "Point", "coordinates": [ 221523.840787768480368, 1143938.845380832441151 ] } },
{ "type": "Feature", "properties": { "type_source": "COSO", "region": "SAVANES", "commune": "OTI 1", "canton": "MANGO", "nom_ouvrage": "FOMBORO", "existence_of_maintenance_plan": "False", "current_status_of_the_site": "Réception provisoire", "index_right": 5816.0, "grid_id": 5816.0, "FRI": 0.14882539820143761, "niveau_risque_inondation": "Élevé" }, "geometry": { "type": "Point", "coordinates": [ 223793.789927216013893, 1145549.945170022314414 ] } },
{ "type": "Feature", "properties": { "type_source": "COSO", "region": "SAVANES", "commune": "OTI 1", "canton": "MANGO", "nom_ouvrage": "DOUANE-EST", "existence_of_maintenance_plan": "False", "current_status_of_the_site": "Réception provisoire", "index_right": 5593.0, "grid_id": 5593.0, "FRI": 0.10140043928168338, "niveau_risque_inondation": "Modéré" }, "geometry": { "type": "Point", "coordinates": [ 223249.091695787908975, 1144012.846993521088734 ] } },
{ "type": "Feature", "properties": { "type_source": "COSO", "region": "SAVANES", "commune": "OTI 1", "canton": "MANGO", "nom_ouvrage": "DJABOU", "existence_of_maintenance_plan": "False", "current_status_of_the_site": "Réception provisoire", "index_right": 5817.0, "grid_id": 5817.0, "FRI": 0.10379561347408849, "niveau_risque_inondation": "Modéré" }, "geometry": { "type": "Point", "coordinates": [ 223869.193749428086448, 1146798.202340581454337 ] } },
{ "type": "Feature", "properties": { "type_source": "COSO", "region": "SAVANES", "commune": "OTI 1", "canton": "MANGO", "nom_ouvrage": "GNANGBANDI (MANGO)", "existence_of_maintenance_plan": "False", "current_status_of_the_site": "Réception provisoire", "index_right": 4770.0, "grid_id": 4770.0, "FRI": 0.021467165251227788, "niveau_risque_inondation": "Faible" }, "geometry": { "type": "Point", "coordinates": [ 219239.81067049189005, 1142354.982497535878792 ] } },
{ "type": "Feature", "properties": { "type_source": "COSO", "region": "SAVANES", "commune": "TONE 2", "canton": "NAMARE", "nom_ouvrage": "GNABADJOUANI 2", "existence_of_maintenance_plan": "True", "current_status_of_the_site": "Réception provisoire", "index_right": 1200.0, "grid_id": 1200.0, "FRI": 0.0091770717260262116, "niveau_risque_inondation": "Faible" }, "geometry": { "type": "Point", "coordinates": [ 186485.182535863830708, 1213775.270212929230183 ] } },
{ "type": "Feature", "properties": { "type_source": "COSO", "region": "SAVANES", "commune": "TONE 2", "canton": "NAMARE", "nom_ouvrage": "YOBRE 1", "existence_of_maintenance_plan": "True", "current_status_of_the_site": "Réception définitive", "index_right": 880.0, "grid_id": 880.0, "FRI": 0.0133938431944621, "niveau_risque_inondation": "Faible" }, "geometry": { "type": "Point", "coordinates": [ 182386.887101773405448, 1210667.341898881131783 ] } },
{ "type": "Feature", "properties": { "type_source": "COSO", "region": "SAVANES", "commune": "OTI SUD 2", "canton": "TAKPAMBA", "nom_ouvrage": "DJIRIDJO", "existence_of_maintenance_plan": "False", "current_status_of_the_site": "Réception provisoire", "index_right": 6837.0, "grid_id": 6837.0, "FRI": 0.012443792378063269, "niveau_risque_inondation": "Faible" }, "geometry": { "type": "Point", "coordinates": [ 228299.349834639870096, 1108028.106522295158356 ] } },
{ "type": "Feature", "properties": { "type_source": "COSO", "region": "SAVANES", "commune": "OTI SUD 2", "canton": "TAKPAMBA", "nom_ouvrage": "SAPOLI", "existence_of_maintenance_plan": "False", "current_status_of_the_site": "Réception provisoire", "index_right": 14993.0, "grid_id": 14993.0, "FRI": 0.014602668179415409, "niveau_risque_inondation": "Faible" }, "geometry": { "type": "Point", "coordinates": [ 248201.88112039497355, 1089030.595284525537863 ] } },
{ "type": "Feature", "properties": { "type_source": "COSO", "region": "SAVANES", "commune": "OTI SUD 2", "canton": "TAKPAMBA", "nom_ouvrage": "LENIDO", "existence_of_maintenance_plan": "False", "current_status_of_the_site": "Réception définitive", "index_right": 9889.0, "grid_id": 9889.0, "FRI": 0.014674837687257204, "niveau_risque_inondation": "Faible" }, "geometry": { "type": "Point", "coordinates": [ 236557.458297096949536, 1100466.820732320426032 ] } },
{ "type": "Feature", "properties": { "type_source": "COSO", "region": "SAVANES", "commune": "TONE 3", "canton": "TAMI", "nom_ouvrage": "SAMBROUGUE", "existence_of_maintenance_plan": "False", "current_status_of_the_site": "Achevé", "index_right": 261.0, "grid_id": 261.0, "FRI": 0.010142149033723425, "niveau_risque_inondation": "Faible" }, "geometry": { "type": "Point", "coordinates": [ 171438.588816636882257, 1207832.72280929563567 ] } },
{ "type": "Feature", "properties": { "type_source": "COSO", "region": "SAVANES", "commune": "TONE 3", "canton": "TAMI", "nom_ouvrage": "POAMONGUE", "existence_of_maintenance_plan": "False", "current_status_of_the_site": "Réception provisoire", "index_right": 685.0, "grid_id": 685.0, "FRI": 0.025583584606011962, "niveau_risque_inondation": "Faible" }, "geometry": { "type": "Point", "coordinates": [ 178907.069145709800068, 1201308.886373214889318 ] } },
{ "type": "Feature", "properties": { "type_source": "COSO", "region": "SAVANES", "commune": "TONE 3", "canton": "LOTOGOU", "nom_ouvrage": "LOTOGOU CENTRE", "existence_of_maintenance_plan": "False", "current_status_of_the_site": "Réception provisoire", "index_right": 439.0, "grid_id": 439.0, "FRI": 0.029410209558542157, "niveau_risque_inondation": "Faible" }, "geometry": { "type": "Point", "coordinates": [ 174676.000331377435941, 1195246.509413493098691 ] } },
{ "type": "Feature", "properties": { "type_source": "COSO", "region": "SAVANES", "commune": "TANDJOUARE 2", "canton": "DOUKPERGOU", "nom_ouvrage": "MAGNA BAS", "existence_of_maintenance_plan": "False", "current_status_of_the_site": "Achevé", "index_right": 847.0, "grid_id": 847.0, "FRI": 0.016001283828556593, "niveau_risque_inondation": "Faible" }, "geometry": { "type": "Point", "coordinates": [ 181688.050800412835088, 1177856.108950227499008 ] } },
{ "type": "Feature", "properties": { "type_source": "COSO", "region": "SAVANES", "commune": "TONE 2", "canton": "NAKI-OUEST", "nom_ouvrage": "KPATCHIANGBANE 1", "existence_of_maintenance_plan": "False", "current_status_of_the_site": "Réception provisoire", "index_right": 309.0, "grid_id": 309.0, "FRI": 0.023257442227135265, "niveau_risque_inondation": "Faible" }, "geometry": { "type": "Point", "coordinates": [ 171697.193354388873558, 1212468.340307868551463 ] } },
{ "type": "Feature", "properties": { "type_source": "COSO", "region": "SAVANES", "commune": "TONE 2", "canton": "NAKI-OUEST", "nom_ouvrage": "BASSOUDOUGOU", "existence_of_maintenance_plan": "False", "current_status_of_the_site": "Réception provisoire", "index_right": 455.0, "grid_id": 455.0, "FRI": 0.01807156059658176, "niveau_risque_inondation": "Faible" }, "geometry": { "type": "Point", "coordinates": [ 174756.34734676493099, 1211196.80893995705992 ] } },
{ "type": "Feature", "properties": { "type_source": "COSO", "region": "SAVANES", "commune": "TONE 2", "canton": "NAKI-OUEST", "nom_ouvrage": "NAKORGOU", "existence_of_maintenance_plan": "False", "current_status_of_the_site": "Réception provisoire", "index_right": 756.0, "grid_id": 756.0, "FRI": 0.014916105944010988, "niveau_risque_inondation": "Faible" }, "geometry": { "type": "Point", "coordinates": [ 179521.856696262257174, 1210190.74912782642059 ] } },
{ "type": "Feature", "properties": { "type_source": "COSO", "region": "SAVANES", "commune": "TONE 2", "canton": "NAKI-OUEST", "nom_ouvrage": "KARIATA", "existence_of_maintenance_plan": "False", "current_status_of_the_site": "Réception provisoire", "index_right": 689.0, "grid_id": 689.0, "FRI": 0.023057480560839071, "niveau_risque_inondation": "Faible" }, "geometry": { "type": "Point", "coordinates": [ 178758.598593968257774, 1205800.408548541134223 ] } },
{ "type": "Feature", "properties": { "type_source": "COSO", "region": "SAVANES", "commune": "TONE 2", "canton": "NAKI-OUEST", "nom_ouvrage": "TCHANDANA", "existence_of_maintenance_plan": "False", "current_status_of_the_site": "Réception provisoire", "index_right": 1069.0, "grid_id": 1069.0, "FRI": 0.013827670789744621, "niveau_risque_inondation": "Faible" }, "geometry": { "type": "Point", "coordinates": [ 185080.767480940034147, 1210250.144441943615675 ] } },
{ "type": "Feature", "properties": { "type_source": "COSO", "region": "SAVANES", "commune": "OTI 2", "canton": "GALANGASHIE", "nom_ouvrage": "KEREKETE", "existence_of_maintenance_plan": "False", "current_status_of_the_site": "Réception provisoire", "index_right": 1736.0, "grid_id": 1736.0, "FRI": 0.013645601520512586, "niveau_risque_inondation": "Faible" }, "geometry": { "type": "Point", "coordinates": [ 194509.045331220200751, 1160205.735736288828775 ] } },
{ "type": "Feature", "properties": { "type_source": "COSO", "region": "SAVANES", "commune": "OTI 2", "canton": "GALANGASHIE", "nom_ouvrage": "KPANDJINI", "existence_of_maintenance_plan": "False", "current_status_of_the_site": "Réception provisoire", "index_right": 2937.0, "grid_id": 2937.0, "FRI": 0.018952114132228526, "niveau_risque_inondation": "Faible" }, "geometry": { "type": "Point", "coordinates": [ 207767.434968224726617, 1165794.888857949757949 ] } },
{ "type": "Feature", "properties": { "type_source": "COSO", "region": "SAVANES", "commune": "OTI SUD 1", "canton": "GANDO", "nom_ouvrage": "DJE-DJABOU", "existence_of_maintenance_plan": "True", "current_status_of_the_site": "Réception définitive", "index_right": 16545.0, "grid_id": 16545.0, "FRI": 0.022977676610658655, "niveau_risque_inondation": "Faible" }, "geometry": { "type": "Point", "coordinates": [ 250534.572150349296862, 1141452.342114531202242 ] } },
{ "type": "Feature", "properties": { "type_source": "COSO", "region": "SAVANES", "commune": "OTI SUD 1", "canton": "GANDO", "nom_ouvrage": "GBATENI", "existence_of_maintenance_plan": "False", "current_status_of_the_site": "Réception provisoire", "index_right": 17550.0, "grid_id": 17550.0, "FRI": 0.011286556474306837, "niveau_risque_inondation": "Faible" }, "geometry": { "type": "Point", "coordinates": [ 252810.89801091994741, 1134364.10813701339066 ] } },
{ "type": "Feature", "properties": { "type_source": "COSO", "region": "SAVANES", "commune": "OTI SUD 1", "canton": "GANDO", "nom_ouvrage": "NAKPATI", "existence_of_maintenance_plan": "False", "current_status_of_the_site": "Réception provisoire", "index_right": 21572.0, "grid_id": 21572.0, "FRI": 0.012059040631813513, "niveau_risque_inondation": "Faible" }, "geometry": { "type": "Point", "coordinates": [ 261108.257610843022121, 1144901.842783219413832 ] } },
{ "type": "Feature", "properties": { "type_source": "COSO", "region": "SAVANES", "commune": "TONE 2", "canton": "NAMARE", "nom_ouvrage": "TCHANKOUNKOUNKONG", "existence_of_maintenance_plan": "False", "current_status_of_the_site": "Achevé", "index_right": 1267.0, "grid_id": 1267.0, "FRI": 0.023174583053226824, "niveau_risque_inondation": "Faible" }, "geometry": { "type": "Point", "coordinates": [ 188120.157312168797944, 1210480.770001463359222 ] } },
{ "type": "Feature", "properties": { "type_source": "COSO", "region": "SAVANES", "commune": "TONE 3", "canton": "TAMI", "nom_ouvrage": "TAMI-CENTRE", "existence_of_maintenance_plan": "False", "current_status_of_the_site": "Achevé", "index_right": 502.0, "grid_id": 502.0, "FRI": 0.024710767247675468, "niveau_risque_inondation": "Faible" }, "geometry": { "type": "Point", "coordinates": [ 176412.888708545127884, 1201862.968505310593173 ] } },
{ "type": "Feature", "properties": { "type_source": "COSO", "region": "SAVANES", "commune": "TONE 3", "canton": "WARKAMBOU", "nom_ouvrage": "WARKAMBOU CENTRE 1", "existence_of_maintenance_plan": "False", "current_status_of_the_site": "Achevé", "index_right": 214.0, "grid_id": 214.0, "FRI": 0.016111985827704286, "niveau_risque_inondation": "Faible" }, "geometry": { "type": "Point", "coordinates": [ 170460.412665859505069, 1195958.910405264701694 ] } },
{ "type": "Feature", "properties": { "type_source": "COSO", "region": "SAVANES", "commune": "KPENDJAL 1", "canton": "KOUNDJOARE", "nom_ouvrage": "TAMBATE", "existence_of_maintenance_plan": "False", "current_status_of_the_site": "Réception provisoire", "index_right": 12712.0, "grid_id": 12712.0, "FRI": 0.022782705666067951, "niveau_risque_inondation": "Faible" }, "geometry": { "type": "Point", "coordinates": [ 242513.043242917890893, 1209829.938932706601918 ] } },
{ "type": "Feature", "properties": { "type_source": "COSO", "region": "SAVANES", "commune": "KPENDJAL 1", "canton": "KOUNDJOARE", "nom_ouvrage": "SANLOAGA", "existence_of_maintenance_plan": "False", "current_status_of_the_site": "Achevé", "index_right": 20156.0, "grid_id": 20156.0, "FRI": 0.02404671129004134, "niveau_risque_inondation": "Faible" }, "geometry": { "type": "Point", "coordinates": [ 258100.167974335403414, 1213434.015225850045681 ] } },
{ "type": "Feature", "properties": { "type_source": "COSO", "region": "SAVANES", "commune": "TANDJOUARE 2", "canton": "DOUKPERGOU", "nom_ouvrage": "PATKONE TOMONG", "existence_of_maintenance_plan": "False", "current_status_of_the_site": "Réception provisoire", "index_right": 474.0, "grid_id": 474.0, "FRI": 0.018754134740237349, "niveau_risque_inondation": "Faible" }, "geometry": { "type": "Point", "coordinates": [ 176009.587541271175724, 1173823.70463743340224 ] } },
{ "type": "Feature", "properties": { "type_source": "COSO", "region": "SAVANES", "commune": "TONE 3", "canton": "TAMI", "nom_ouvrage": "NATCHARE", "existence_of_maintenance_plan": "False", "current_status_of_the_site": "Réception provisoire", "index_right": 446.0, "grid_id": 446.0, "FRI": 0.01473761993733293, "niveau_risque_inondation": "Faible" }, "geometry": { "type": "Point", "coordinates": [ 175393.666500544641167, 1202716.256779015762731 ] } },
{ "type": "Feature", "properties": { "type_source": "COSO", "region": "CENTRALE", "commune": "TCHAMBA 3", "canton": "KABOLI", "nom_ouvrage": "KABOLI", "existence_of_maintenance_plan": "False", "current_status_of_the_site": "Réception provisoire", "index_right": 55415.0, "grid_id": 55415.0, "FRI": 0.011041891890507435, "niveau_risque_inondation": "Faible" }, "geometry": { "type": "Point", "coordinates": [ 343254.431580240197945, 967108.397525566280819 ] } },
{ "type": "Feature", "properties": { "type_source": "COSO", "region": "SAVANES", "commune": "CINKASSE 1", "canton": "CINKASSE", "nom_ouvrage": "ZOLALE", "existence_of_maintenance_plan": "False", "current_status_of_the_site": "Réception provisoire", "index_right": 471.0, "grid_id": 471.0, "FRI": 0.096843072620829834, "niveau_risque_inondation": "Modéré" }, "geometry": { "type": "Point", "coordinates": [ 175464.558462278568186, 1227982.731263709487393 ] } },
{ "type": "Feature", "properties": { "type_source": "COSO", "region": "SAVANES", "commune": "OTI SUD 1", "canton": "SAGBIEBOU", "nom_ouvrage": "NASSIKOU", "existence_of_maintenance_plan": "False", "current_status_of_the_site": "Réception technique", "index_right": 16528.0, "grid_id": 16528.0, "FRI": 0.012510175140913958, "niveau_risque_inondation": "Faible" }, "geometry": { "type": "Point", "coordinates": [ 251269.508387459500227, 1124544.556534172268584 ] } },
{ "type": "Feature", "properties": { "type_source": "COSO", "region": "SAVANES", "commune": "OTI SUD 1", "canton": "SAGBIEBOU", "nom_ouvrage": "TIEPAH", "existence_of_maintenance_plan": "False", "current_status_of_the_site": "Réception technique", "index_right": 10333.0, "grid_id": 10333.0, "FRI": 0.014922791374690731, "niveau_risque_inondation": "Faible" }, "geometry": { "type": "Point", "coordinates": [ 238463.966811041347682, 1126065.425345536088571 ] } },
{ "type": "Feature", "properties": { "type_source": "COSO", "region": "SAVANES", "commune": "OTI SUD 1", "canton": "SAGBIEBOU", "nom_ouvrage": "BAOULE", "existence_of_maintenance_plan": "False", "current_status_of_the_site": "Achevé", "index_right": 9137.0, "grid_id": 9137.0, "FRI": 0.027270682908625086, "niveau_risque_inondation": "Faible" }, "geometry": { "type": "Point", "coordinates": [ 234805.597715153708123, 1135514.417235608678311 ] } },
{ "type": "Feature", "properties": { "type_source": "TdE", "region": "Maritime", "commune": "Agoè-Nyivé 1", "canton": "Agoè-Nyivé", "nom_ouvrage": "Forage", "existence_of_maintenance_plan": "<NA>", "current_status_of_the_site": null, "index_right": 38957.0, "grid_id": 38957.0, "FRI": 0.12403539844364204, "niveau_risque_inondation": "Élevé" }, "geometry": { "type": "Point", "coordinates": [ 300926.60088162671309, 686348.421410256298259 ] } },
{ "type": "Feature", "properties": { "type_source": "TdE", "region": "Maritime", "commune": "Agoè-Nyivé 1", "canton": "Agoè-Nyivé", "nom_ouvrage": "Forage", "existence_of_maintenance_plan": "<NA>", "current_status_of_the_site": null, "index_right": 38957.0, "grid_id": 38957.0, "FRI": 0.12403539844364204, "niveau_risque_inondation": "Élevé" }, "geometry": { "type": "Point", "coordinates": [ 301006.46669652935816, 686562.894427505787462 ] } },
{ "type": "Feature", "properties": { "type_source": "TdE", "region": "Maritime", "commune": "Agoè-Nyivé 1", "canton": "Agoè-Nyivé", "nom_ouvrage": "Forage", "existence_of_maintenance_plan": "<NA>", "current_status_of_the_site": null, "index_right": 38957.0, "grid_id": 38957.0, "FRI": 0.12403539844364204, "niveau_risque_inondation": "Élevé" }, "geometry": { "type": "Point", "coordinates": [ 301108.573914888547733, 686536.741635976824909 ] } },
{ "type": "Feature", "properties": { "type_source": "TdE", "region": "Maritime", "commune": "Agoè-Nyivé 1", "canton": "Agoè-Nyivé", "nom_ouvrage": "Forage", "existence_of_maintenance_plan": "<NA>", "current_status_of_the_site": null, "index_right": 38957.0, "grid_id": 38957.0, "FRI": 0.12403539844364204, "niveau_risque_inondation": "Élevé" }, "geometry": { "type": "Point", "coordinates": [ 301245.235553047386929, 686479.251669022487476 ] } },
{ "type": "Feature", "properties": { "type_source": "TdE", "region": "Maritime", "commune": "Agoè-Nyivé 1", "canton": "Agoè-Nyivé", "nom_ouvrage": "Forage", "existence_of_maintenance_plan": "<NA>", "current_status_of_the_site": null, "index_right": 38957.0, "grid_id": 38957.0, "FRI": 0.12403539844364204, "niveau_risque_inondation": "Élevé" }, "geometry": { "type": "Point", "coordinates": [ 300997.6291716414853, 686567.901341964141466 ] } },
{ "type": "Feature", "properties": { "type_source": "TdE", "region": "Maritime", "commune": "Agoè-Nyivé 1", "canton": "Agoè-Nyivé", "nom_ouvrage": "Forage", "existence_of_maintenance_plan": "<NA>", "current_status_of_the_site": null, "index_right": 38957.0, "grid_id": 38957.0, "FRI": 0.12403539844364204, "niveau_risque_inondation": "Élevé" }, "geometry": { "type": "Point", "coordinates": [ 301437.55943722196389, 686505.027364965062588 ] } },
{ "type": "Feature", "properties": { "type_source": "TdE", "region": "Maritime", "commune": "Agoè-Nyivé 1", "canton": "Agoè-Nyivé", "nom_ouvrage": "Forage", "existence_of_maintenance_plan": "<NA>", "current_status_of_the_site": null, "index_right": 38957.0, "grid_id": 38957.0, "FRI": 0.12403539844364204, "niveau_risque_inondation": "Élevé" }, "geometry": { "type": "Point", "coordinates": [ 301021.309368086920585, 686424.965366209158674 ] } },
{ "type": "Feature", "properties": { "type_source": "TdE", "region": "Maritime", "commune": "Agoè-Nyivé 1", "canton": "Agoè-Nyivé", "nom_ouvrage": "Forage", "existence_of_maintenance_plan": "<NA>", "current_status_of_the_site": null, "index_right": 38957.0, "grid_id": 38957.0, "FRI": 0.12403539844364204, "niveau_risque_inondation": "Élevé" }, "geometry": { "type": "Point", "coordinates": [ 301065.149559507146478, 686460.576521499198861 ] } },
{ "type": "Feature", "properties": { "type_source": "TdE", "region": "Maritime", "commune": "Agoè-Nyivé 1", "canton": "Agoè-Nyivé", "nom_ouvrage": "Forage", "existence_of_maintenance_plan": "<NA>", "current_status_of_the_site": null, "index_right": 38957.0, "grid_id": 38957.0, "FRI": 0.12403539844364204, "niveau_risque_inondation": "Élevé" }, "geometry": { "type": "Point", "coordinates": [ 300974.717124410439283, 686393.787487869383767 ] } },
{ "type": "Feature", "properties": { "type_source": "TdE", "region": "Maritime", "commune": "Agoè-Nyivé 1", "canton": "Agoè-Nyivé", "nom_ouvrage": "Forage", "existence_of_maintenance_plan": "<NA>", "current_status_of_the_site": null, "index_right": 38079.0, "grid_id": 38079.0, "FRI": 0.1238472077385418, "niveau_risque_inondation": "Élevé" }, "geometry": { "type": "Point", "coordinates": [ 299095.077319011674263, 687449.783693359582685 ] } },
{ "type": "Feature", "properties": { "type_source": "TdE", "region": "Maritime", "commune": "Agoè-Nyivé 1", "canton": "Agoè-Nyivé", "nom_ouvrage": "Forage", "existence_of_maintenance_plan": "<NA>", "current_status_of_the_site": null, "index_right": 38515.0, "grid_id": 38515.0, "FRI": 0.15784536896775064, "niveau_risque_inondation": "Élevé" }, "geometry": { "type": "Point", "coordinates": [ 299710.294351930962875, 686861.318087924155407 ] } },
{ "type": "Feature", "properties": { "type_source": "TdE", "region": "Maritime", "commune": "Agoè-Nyivé 1", "canton": "Agoè-Nyivé", "nom_ouvrage": "Forage", "existence_of_maintenance_plan": "<NA>", "current_status_of_the_site": null, "index_right": 39844.0, "grid_id": 39844.0, "FRI": 0.10573823014882609, "niveau_risque_inondation": "Modéré" }, "geometry": { "type": "Point", "coordinates": [ 302911.701319916639477, 690131.869067223044112 ] } },
{ "type": "Feature", "properties": { "type_source": "TdE", "region": "Maritime", "commune": "Agoè-Nyivé 1", "canton": "Agoè-Nyivé", "nom_ouvrage": "Forage", "existence_of_maintenance_plan": "<NA>", "current_status_of_the_site": null, "index_right": 38079.0, "grid_id": 38079.0, "FRI": 0.1238472077385418, "niveau_risque_inondation": "Élevé" }, "geometry": { "type": "Point", "coordinates": [ 298927.835124078672379, 686986.948031558538787 ] } },
{ "type": "Feature", "properties": { "type_source": "TdE", "region": "Maritime", "commune": "Agoè-Nyivé 1", "canton": "Agoè-Nyivé", "nom_ouvrage": "Forage", "existence_of_maintenance_plan": "<NA>", "current_status_of_the_site": null, "index_right": 38079.0, "grid_id": 38079.0, "FRI": 0.1238472077385418, "niveau_risque_inondation": "Élevé" }, "geometry": { "type": "Point", "coordinates": [ 298924.114758690469898, 686977.928549908450805 ] } },
{ "type": "Feature", "properties": { "type_source": "TdE", "region": "Maritime", "commune": "Agoè-Nyivé 1", "canton": "Agoè-Nyivé", "nom_ouvrage": "Forage", "existence_of_maintenance_plan": "<NA>", "current_status_of_the_site": null, "index_right": 37643.0, "grid_id": 37643.0, "FRI": 0.12324107429437711, "niveau_risque_inondation": "Élevé" }, "geometry": { "type": "Point", "coordinates": [ 298247.073276394337881, 688037.771894562873058 ] } },
{ "type": "Feature", "properties": { "type_source": "TdE", "region": "Maritime", "commune": "Agoè-Nyivé 1", "canton": "Agoè-Nyivé", "nom_ouvrage": "Forage", "existence_of_maintenance_plan": "<NA>", "current_status_of_the_site": null, "index_right": 39403.0, "grid_id": 39403.0, "FRI": 0.13905374656612249, "niveau_risque_inondation": "Élevé" }, "geometry": { "type": "Point", "coordinates": [ 301992.73791698331479, 690403.366362321190536 ] } },
{ "type": "Feature", "properties": { "type_source": "TdE", "region": "Maritime", "commune": "Agoè-Nyivé 1", "canton": "Agoè-Nyivé", "nom_ouvrage": "Forage", "existence_of_maintenance_plan": "<NA>", "current_status_of_the_site": null, "index_right": 39842.0, "grid_id": 39842.0, "FRI": 0.16749912411639062, "niveau_risque_inondation": "Élevé" }, "geometry": { "type": "Point", "coordinates": [ 303405.107593300403096, 688758.988679749076255 ] } },
{ "type": "Feature", "properties": { "type_source": "TdE", "region": "Maritime", "commune": "Agoè-Nyivé 1", "canton": "Agoè-Nyivé", "nom_ouvrage": "Forage", "existence_of_maintenance_plan": "<NA>", "current_status_of_the_site": null, "index_right": 38957.0, "grid_id": 38957.0, "FRI": 0.12403539844364204, "niveau_risque_inondation": "Élevé" }, "geometry": { "type": "Point", "coordinates": [ 300890.698740959516726, 686423.196943691000342 ] } },
{ "type": "Feature", "properties": { "type_source": "TdE", "region": "Maritime", "commune": "Agoè-Nyivé 1", "canton": "Agoè-Nyivé", "nom_ouvrage": "Forage", "existence_of_maintenance_plan": "<NA>", "current_status_of_the_site": null, "index_right": 38957.0, "grid_id": 38957.0, "FRI": 0.12403539844364204, "niveau_risque_inondation": "Élevé" }, "geometry": { "type": "Point", "coordinates": [ 300883.544840199989267, 686489.395674846833572 ] } },
{ "type": "Feature", "properties": { "type_source": "TdE", "region": "Maritime", "commune": "Agoè-Nyivé 2", "canton": "Légbassito", "nom_ouvrage": "Forage", "existence_of_maintenance_plan": "<NA>", "current_status_of_the_site": null, "index_right": 36771.0, "grid_id": 36771.0, "FRI": 0.16442228386090935, "niveau_risque_inondation": "Élevé" }, "geometry": { "type": "Point", "coordinates": [ 296007.90978064131923, 693752.543166474555619 ] } },
{ "type": "Feature", "properties": { "type_source": "TdE", "region": "Maritime", "commune": "Agoè-Nyivé 2", "canton": "Légbassito", "nom_ouvrage": "Forage", "existence_of_maintenance_plan": "<NA>", "current_status_of_the_site": null, "index_right": 37213.0, "grid_id": 37213.0, "FRI": 0.026203522623111947, "niveau_risque_inondation": "Faible" }, "geometry": { "type": "Point", "coordinates": [ 296677.348788472823799, 696553.917941834544763 ] } },
{ "type": "Feature", "properties": { "type_source": "TdE", "region": "Maritime", "commune": "Agoè-Nyivé 2", "canton": "Légbassito", "nom_ouvrage": "Forage", "existence_of_maintenance_plan": "<NA>", "current_status_of_the_site": null, "index_right": 37214.0, "grid_id": 37214.0, "FRI": 0.015227885610496235, "niveau_risque_inondation": "Faible" }, "geometry": { "type": "Point", "coordinates": [ 296983.803043868509121, 697053.491582155111246 ] } },
{ "type": "Feature", "properties": { "type_source": "TdE", "region": "Maritime", "commune": "Agoè-Nyivé 3", "canton": "Vakpossito", "nom_ouvrage": "Forage", "existence_of_maintenance_plan": "<NA>", "current_status_of_the_site": null, "index_right": 37642.0, "grid_id": 37642.0, "FRI": 0.13491295593298505, "niveau_risque_inondation": "Élevé" }, "geometry": { "type": "Point", "coordinates": [ 298298.952053245389834, 687140.631701531819999 ] } },
{ "type": "Feature", "properties": { "type_source": "TdE", "region": "Maritime", "commune": "Agoè-Nyivé 3", "canton": "Vakpossito", "nom_ouvrage": "Forage", "existence_of_maintenance_plan": "<NA>", "current_status_of_the_site": null, "index_right": 37642.0, "grid_id": 37642.0, "FRI": 0.13491295593298505, "niveau_risque_inondation": "Élevé" }, "geometry": { "type": "Point", "coordinates": [ 297931.784661441983189, 687707.614668782101944 ] } },
{ "type": "Feature", "properties": { "type_source": "TdE", "region": "Maritime", "commune": "Agoè-Nyivé 3", "canton": "Vakpossito", "nom_ouvrage": "Forage", "existence_of_maintenance_plan": "<NA>", "current_status_of_the_site": null, "index_right": 37642.0, "grid_id": 37642.0, "FRI": 0.13491295593298505, "niveau_risque_inondation": "Élevé" }, "geometry": { "type": "Point", "coordinates": [ 297931.079902618541382, 687717.202403508708812 ] } },
{ "type": "Feature", "properties": { "type_source": "TdE", "region": "Maritime", "commune": "Agoè-Nyivé 3", "canton": "Vakpossito", "nom_ouvrage": "Forage", "existence_of_maintenance_plan": "<NA>", "current_status_of_the_site": null, "index_right": 38079.0, "grid_id": 38079.0, "FRI": 0.1238472077385418, "niveau_risque_inondation": "Élevé" }, "geometry": { "type": "Point", "coordinates": [ 298518.33442713227123, 687583.195167453959584 ] } },
{ "type": "Feature", "properties": { "type_source": "TdE", "region": "Maritime", "commune": "Agoè-Nyivé 3", "canton": "Vakpossito", "nom_ouvrage": "Nsp", "existence_of_maintenance_plan": "<NA>", "current_status_of_the_site": null, "index_right": 37204.0, "grid_id": 37204.0, "FRI": 0.12568767426487976, "niveau_risque_inondation": "Élevé" }, "geometry": { "type": "Point", "coordinates": [ 296507.973055530223064, 687685.268290764070116 ] } },
{ "type": "Feature", "properties": { "type_source": "TdE", "region": "Maritime", "commune": "Agoè-Nyivé 4", "canton": "Togblekope", "nom_ouvrage": "Forage", "existence_of_maintenance_plan": "<NA>", "current_status_of_the_site": null, "index_right": 39405.0, "grid_id": 39405.0, "FRI": 0.15556818711297107, "niveau_risque_inondation": "Élevé" }, "geometry": { "type": "Point", "coordinates": [ 301895.185892870882526, 692577.677582377684303 ] } },
{ "type": "Feature", "properties": { "type_source": "TdE", "region": "Maritime", "commune": "Agoè-Nyivé 4", "canton": "Togblekope", "nom_ouvrage": "Forage", "existence_of_maintenance_plan": "<NA>", "current_status_of_the_site": null, "index_right": 39846.0, "grid_id": 39846.0, "FRI": 0.094854646653601674, "niveau_risque_inondation": "Modéré" }, "geometry": { "type": "Point", "coordinates": [ 303105.705799813789781, 692681.025241301394999 ] } },
{ "type": "Feature", "properties": { "type_source": "TdE", "region": "Maritime", "commune": "Agoè-Nyivé 4", "canton": "Togblekope", "nom_ouvrage": "Château de Dikame", "existence_of_maintenance_plan": "<NA>", "current_status_of_the_site": null, "index_right": 40284.0, "grid_id": 40284.0, "FRI": 0.16177589893210384, "niveau_risque_inondation": "Élevé" }, "geometry": { "type": "Point", "coordinates": [ 304474.663710356806405, 690592.584268693462946 ] } },
{ "type": "Feature", "properties": { "type_source": "TdE", "region": "Maritime", "commune": "Agoè-Nyivé 4", "canton": "Togblekope", "nom_ouvrage": "Forage", "existence_of_maintenance_plan": "<NA>", "current_status_of_the_site": null, "index_right": 39407.0, "grid_id": 39407.0, "FRI": 0.14803471586524866, "niveau_risque_inondation": "Élevé" }, "geometry": { "type": "Point", "coordinates": [ 302173.20681045204401, 694270.899453439866193 ] } },
{ "type": "Feature", "properties": { "type_source": "TdE", "region": "Maritime", "commune": "Agoè-Nyivé 4", "canton": "Togblekope", "nom_ouvrage": "Château de Fidokpui", "existence_of_maintenance_plan": "<NA>", "current_status_of_the_site": null, "index_right": 39846.0, "grid_id": 39846.0, "FRI": 0.094854646653601674, "niveau_risque_inondation": "Modéré" }, "geometry": { "type": "Point", "coordinates": [ 303477.251998222083785, 692483.088970243814401 ] } },
{ "type": "Feature", "properties": { "type_source": "TdE", "region": "Maritime", "commune": "Agoè-Nyivé 4", "canton": "Togblekope", "nom_ouvrage": "Forage", "existence_of_maintenance_plan": "<NA>", "current_status_of_the_site": null, "index_right": 38088.0, "grid_id": 38088.0, "FRI": 0.030217079143344837, "niveau_risque_inondation": "Faible" }, "geometry": { "type": "Point", "coordinates": [ 298882.451395093463361, 695897.715879784082063 ] } },
{ "type": "Feature", "properties": { "type_source": "TdE", "region": "Maritime", "commune": "Agoè-Nyivé 6", "canton": "Adétikopé", "nom_ouvrage": "Forage B'16Bis", "existence_of_maintenance_plan": "<NA>", "current_status_of_the_site": null, "index_right": 39411.0, "grid_id": 39411.0, "FRI": 0.027553617212964558, "niveau_risque_inondation": "Faible" }, "geometry": { "type": "Point", "coordinates": [ 301676.619947800063528, 698335.963300831965171 ] } },
{ "type": "Feature", "properties": { "type_source": "TdE", "region": "Maritime", "commune": "Agoè-Nyivé 6", "canton": "Adétikopé", "nom_ouvrage": "Forage", "existence_of_maintenance_plan": "<NA>", "current_status_of_the_site": null, "index_right": 39414.0, "grid_id": 39414.0, "FRI": 0.019934440886308101, "niveau_risque_inondation": "Faible" }, "geometry": { "type": "Point", "coordinates": [ 302385.374698761384934, 701657.171207297593355 ] } },
{ "type": "Feature", "properties": { "type_source": "TdE", "region": "Maritime", "commune": "Agoè-Nyivé 6", "canton": "Adétikopé", "nom_ouvrage": "Forage", "existence_of_maintenance_plan": "<NA>", "current_status_of_the_site": null, "index_right": 39412.0, "grid_id": 39412.0, "FRI": 0.09085222405674255, "niveau_risque_inondation": "Modéré" }, "geometry": { "type": "Point", "coordinates": [ 302091.96020575723378, 699355.536549353390001 ] } },
{ "type": "Feature", "properties": { "type_source": "TdE", "region": "Maritime", "commune": "Agoè-Nyivé 6", "canton": "Adétikopé", "nom_ouvrage": "Forage C'10", "existence_of_maintenance_plan": "<NA>", "current_status_of_the_site": null, "index_right": 39853.0, "grid_id": 39853.0, "FRI": 0.11144932278091392, "niveau_risque_inondation": "Élevé" }, "geometry": { "type": "Point", "coordinates": [ 303019.756005207891576, 699230.879185160505585 ] } },
{ "type": "Feature", "properties": { "type_source": "TdE", "region": "Maritime", "commune": "Agoè-Nyivé 6", "canton": "Adétikopé", "nom_ouvrage": "Forage", "existence_of_maintenance_plan": "<NA>", "current_status_of_the_site": null, "index_right": 38969.0, "grid_id": 38969.0, "FRI": 0.018717561985479515, "niveau_risque_inondation": "Faible" }, "geometry": { "type": "Point", "coordinates": [ 300587.455440777470358, 698521.842310074251145 ] } },
{ "type": "Feature", "properties": { "type_source": "TdE", "region": "Maritime", "commune": "Vo 1", "canton": "Vogan", "nom_ouvrage": "Forage Massekope", "existence_of_maintenance_plan": "<NA>", "current_status_of_the_site": null, "index_right": 53516.0, "grid_id": 53516.0, "FRI": 0.025543313195978912, "niveau_risque_inondation": "Faible" }, "geometry": { "type": "Point", "coordinates": [ 338361.63168989616679, 703895.198852923931554 ] } },
{ "type": "Feature", "properties": { "type_source": "TdE", "region": "Maritime", "commune": "Vo 1", "canton": "Vogan", "nom_ouvrage": "Forage", "existence_of_maintenance_plan": "<NA>", "current_status_of_the_site": null, "index_right": 52508.0, "grid_id": 52508.0, "FRI": 0.029554102008379376, "niveau_risque_inondation": "Faible" }, "geometry": { "type": "Point", "coordinates": [ 335230.554453717602883, 694994.358091329806484 ] } },
{ "type": "Feature", "properties": { "type_source": "TdE", "region": "Maritime", "commune": "Vo 1", "canton": "Vogan", "nom_ouvrage": "Forage", "existence_of_maintenance_plan": "<NA>", "current_status_of_the_site": null, "index_right": 50478.0, "grid_id": 50478.0, "FRI": 0.026763927350143202, "niveau_risque_inondation": "Faible" }, "geometry": { "type": "Point", "coordinates": [ 329308.249518707278185, 700298.057103332481347 ] } },
{ "type": "Feature", "properties": { "type_source": "TdE", "region": "Maritime", "commune": "Bas-Mono 1", "canton": "Kpétsou", "nom_ouvrage": "Forage de Kpessou", "existence_of_maintenance_plan": "<NA>", "current_status_of_the_site": null, "index_right": 55174.0, "grid_id": 55174.0, "FRI": 0.021842206538356369, "niveau_risque_inondation": "Faible" }, "geometry": { "type": "Point", "coordinates": [ 343416.31256900227163, 721327.386584825231694 ] } },
{ "type": "Feature", "properties": { "type_source": "TdE", "region": "Maritime", "commune": "Vo 1", "canton": "Vo-Koutimé", "nom_ouvrage": "Nsp", "existence_of_maintenance_plan": "<NA>", "current_status_of_the_site": null, "index_right": 55472.0, "grid_id": 55472.0, "FRI": 0.01570642753817407, "niveau_risque_inondation": "Faible" }, "geometry": { "type": "Point", "coordinates": [ 343550.234976157080382, 700432.212277734768577 ] } },
{ "type": "Feature", "properties": { "type_source": "TdE", "region": "Maritime", "commune": "Vo 1", "canton": "Vo-Koutimé", "nom_ouvrage": "Nsp", "existence_of_maintenance_plan": "<NA>", "current_status_of_the_site": null, "index_right": 56099.0, "grid_id": 56099.0, "FRI": 0.024492845287592307, "niveau_risque_inondation": "Faible" }, "geometry": { "type": "Point", "coordinates": [ 345805.89384119771421, 705300.512039396795444 ] } },
{ "type": "Feature", "properties": { "type_source": "TdE", "region": "Maritime", "commune": "Vo 1", "canton": "Vo-Koutimé", "nom_ouvrage": "Nsp", "existence_of_maintenance_plan": "<NA>", "current_status_of_the_site": null, "index_right": 54174.0, "grid_id": 54174.0, "FRI": 0.021055628709049631, "niveau_risque_inondation": "Faible" }, "geometry": { "type": "Point", "coordinates": [ 339885.240407448611222, 702401.407594051910564 ] } },
{ "type": "Feature", "properties": { "type_source": "TdE", "region": "Maritime", "commune": "Vo 2", "canton": "Togoville", "nom_ouvrage": "Forage", "existence_of_maintenance_plan": "<NA>", "current_status_of_the_site": null, "index_right": 52837.0, "grid_id": 52837.0, "FRI": 0.02578751572914826, "niveau_risque_inondation": "Faible" }, "geometry": { "type": "Point", "coordinates": [ 336079.338752229465172, 689992.203328329487704 ] } },
{ "type": "Feature", "properties": { "type_source": "TdE", "region": "Maritime", "commune": "Vo 2", "canton": "Togoville", "nom_ouvrage": "Nsp", "existence_of_maintenance_plan": "<NA>", "current_status_of_the_site": null, "index_right": 51153.0, "grid_id": 51153.0, "FRI": 0.025689791538066421, "niveau_risque_inondation": "Faible" }, "geometry": { "type": "Point", "coordinates": [ 331365.851599019835703, 690004.281695106066763 ] } },
{ "type": "Feature", "properties": { "type_source": "TdE", "region": "Maritime", "commune": "Bas-Mono 1", "canton": "Afagnangan", "nom_ouvrage": "Forage de Saint Jean de Dieu", "existence_of_maintenance_plan": "<NA>", "current_status_of_the_site": null, "index_right": 56973.0, "grid_id": 56973.0, "FRI": 0.080977509184396765, "niveau_risque_inondation": "Modéré" }, "geometry": { "type": "Point", "coordinates": [ 348605.444545094273053, 718118.141261376673356 ] } },
{ "type": "Feature", "properties": { "type_source": "TdE", "region": "Maritime", "commune": "Bas-Mono 2", "canton": "Agome-Glozou", "nom_ouvrage": "Forage du Château de Agbetiko", "existence_of_maintenance_plan": "<NA>", "current_status_of_the_site": null, "index_right": 57462.0, "grid_id": 57462.0, "FRI": 0.015752849049845488, "niveau_risque_inondation": "Faible" }, "geometry": { "type": "Point", "coordinates": [ 354924.436874086619355, 718224.335046463529579 ] } },
{ "type": "Feature", "properties": { "type_source": "TdE", "region": "Maritime", "commune": "Vo 3", "canton": "Dagbati", "nom_ouvrage": "Nsp", "existence_of_maintenance_plan": "<NA>", "current_status_of_the_site": null, "index_right": 51852.0, "grid_id": 51852.0, "FRI": 0.024562019549252266, "niveau_risque_inondation": "Faible" }, "geometry": { "type": "Point", "coordinates": [ 333246.686097285011783, 710958.969689216464758 ] } },
{ "type": "Feature", "properties": { "type_source": "TdE", "region": "Maritime", "commune": "Vo 3", "canton": "Dzrékpo", "nom_ouvrage": "Nsp", "existence_of_maintenance_plan": "<NA>", "current_status_of_the_site": null, "index_right": 54842.0, "grid_id": 54842.0, "FRI": 0.01954734210560469, "niveau_risque_inondation": "Faible" }, "geometry": { "type": "Point", "coordinates": [ 341504.959980087704025, 713661.470466463710181 ] } },
{ "type": "Feature", "properties": { "type_source": "TdE", "region": "Maritime", "commune": "Golfe 7", "canton": "Aflao-Sagbado", "nom_ouvrage": "Forage de Lankouvi", "existence_of_maintenance_plan": "<NA>", "current_status_of_the_site": null, "index_right": 35442.0, "grid_id": 35442.0, "FRI": 0.16449941374007399, "niveau_risque_inondation": "Élevé" }, "geometry": { "type": "Point", "coordinates": [ 292669.976910561788827, 683333.814907316351309 ] } },
{ "type": "Feature", "properties": { "type_source": "TdE", "region": "Maritime", "commune": "Golfe 7", "canton": "Aflao-Sagbado", "nom_ouvrage": "Forage de Kleme", "existence_of_maintenance_plan": "<NA>", "current_status_of_the_site": null, "index_right": 34564.0, "grid_id": 34564.0, "FRI": 0.12931890074385582, "niveau_risque_inondation": "Élevé" }, "geometry": { "type": "Point", "coordinates": [ 291016.451228852383792, 687026.073561038938351 ] } },
{ "type": "Feature", "properties": { "type_source": "TdE", "region": "Maritime", "commune": "Lacs 2", "canton": "Aklakou", "nom_ouvrage": "Forage de Aklakou", "existence_of_maintenance_plan": "<NA>", "current_status_of_the_site": null, "index_right": 57512.0, "grid_id": 57512.0, "FRI": 0.030069939627122587, "niveau_risque_inondation": "Faible" }, "geometry": { "type": "Point", "coordinates": [ 356928.115414162632078, 700061.369745173142292 ] } },
{ "type": "Feature", "properties": { "type_source": "TdE", "region": "Maritime", "commune": "Lacs 4", "canton": "Fiata", "nom_ouvrage": "Forage de Attoeta", "existence_of_maintenance_plan": "<NA>", "current_status_of_the_site": null, "index_right": 57331.0, "grid_id": 57331.0, "FRI": 0.023781083345269943, "niveau_risque_inondation": "Faible" }, "geometry": { "type": "Point", "coordinates": [ 352150.265835300204344, 696715.340897072223015 ] } },
{ "type": "Feature", "properties": { "type_source": "TdE", "region": "Maritime", "commune": "Lacs 4", "canton": "Ganavé", "nom_ouvrage": "Forage de Fiata", "existence_of_maintenance_plan": "<NA>", "current_status_of_the_site": null, "index_right": 56954.0, "grid_id": 56954.0, "FRI": 0.019186396969147042, "niveau_risque_inondation": "Faible" }, "geometry": { "type": "Point", "coordinates": [ 348930.996515684644692, 699572.089331635739654 ] } },
{ "type": "Feature", "properties": { "type_source": "TdE", "region": "Maritime", "commune": "Zio 1", "canton": "Dalavé", "nom_ouvrage": "Forage", "existence_of_maintenance_plan": "<NA>", "current_status_of_the_site": null, "index_right": 40736.0, "grid_id": 40736.0, "FRI": 0.018663343412137837, "niveau_risque_inondation": "Faible" }, "geometry": { "type": "Point", "coordinates": [ 305172.207063495181501, 703793.753081325441599 ] } },
{ "type": "Feature", "properties": { "type_source": "TdE", "region": "Maritime", "commune": "Zio 1", "canton": "Dalavé", "nom_ouvrage": "Forage", "existence_of_maintenance_plan": "<NA>", "current_status_of_the_site": null, "index_right": 42050.0, "grid_id": 42050.0, "FRI": 0.013001259691455821, "niveau_risque_inondation": "Faible" }, "geometry": { "type": "Point", "coordinates": [ 307497.879548054304905, 705349.687020258861594 ] } },
{ "type": "Feature", "properties": { "type_source": "TdE", "region": "Maritime", "commune": "Zio 1", "canton": "Gbatopé", "nom_ouvrage": "Forage", "existence_of_maintenance_plan": "<NA>", "current_status_of_the_site": null, "index_right": 44221.0, "grid_id": 44221.0, "FRI": 0.014473927427541786, "niveau_risque_inondation": "Faible" }, "geometry": { "type": "Point", "coordinates": [ 312737.160960179113317, 708398.047818762599491 ] } },
{ "type": "Feature", "properties": { "type_source": "TdE", "region": "Maritime", "commune": "Zio 1", "canton": "Gbatopé", "nom_ouvrage": "Forage", "existence_of_maintenance_plan": "<NA>", "current_status_of_the_site": null, "index_right": 44223.0, "grid_id": 44223.0, "FRI": 0.013866254764279775, "niveau_risque_inondation": "Faible" }, "geometry": { "type": "Point", "coordinates": [ 313145.722355508129112, 710398.790996557334438 ] } },
{ "type": "Feature", "properties": { "type_source": "TdE", "region": "Maritime", "commune": "Zio 1", "canton": "Gbatopé", "nom_ouvrage": "Forage", "existence_of_maintenance_plan": "<NA>", "current_status_of_the_site": null, "index_right": 43791.0, "grid_id": 43791.0, "FRI": 0.012609466729429359, "niveau_risque_inondation": "Faible" }, "geometry": { "type": "Point", "coordinates": [ 312238.180870830372442, 709728.09897026757244 ] } },
{ "type": "Feature", "properties": { "type_source": "TdE", "region": "Maritime", "commune": "Zio 1", "canton": "Gbatopé", "nom_ouvrage": "Forage", "existence_of_maintenance_plan": "<NA>", "current_status_of_the_site": null, "index_right": 44223.0, "grid_id": 44223.0, "FRI": 0.013866254764279775, "niveau_risque_inondation": "Faible" }, "geometry": { "type": "Point", "coordinates": [ 313158.639306123601273, 710401.881817962741479 ] } },
{ "type": "Feature", "properties": { "type_source": "TdE", "region": "Maritime", "commune": "Zio 1", "canton": "Gbatopé", "nom_ouvrage": "Forage", "existence_of_maintenance_plan": "<NA>", "current_status_of_the_site": null, "index_right": 44223.0, "grid_id": 44223.0, "FRI": 0.013866254764279775, "niveau_risque_inondation": "Faible" }, "geometry": { "type": "Point", "coordinates": [ 313147.746887401095591, 710397.678391752415337 ] } },
{ "type": "Feature", "properties": { "type_source": "TdE", "region": "Maritime", "commune": "Zio 1", "canton": "Gbatopé", "nom_ouvrage": "Forage", "existence_of_maintenance_plan": "<NA>", "current_status_of_the_site": null, "index_right": 43358.0, "grid_id": 43358.0, "FRI": 0.014659933326778781, "niveau_risque_inondation": "Faible" }, "geometry": { "type": "Point", "coordinates": [ 311248.053695054259151, 708127.785720437765121 ] } },
{ "type": "Feature", "properties": { "type_source": "TdE", "region": "Centrale", "commune": "Tchamba 1", "canton": "Tchamba", "nom_ouvrage": "Larini", "existence_of_maintenance_plan": "<NA>", "current_status_of_the_site": null, "index_right": 49388.0, "grid_id": 49388.0, "FRI": 0.021350254350873503, "niveau_risque_inondation": "Faible" }, "geometry": { "type": "Point", "coordinates": [ 325334.947146004822571, 998940.459558447124436 ] } },
{ "type": "Feature", "properties": { "type_source": "TdE", "region": "Maritime", "commune": "Lacs 3", "canton": "Agbodrafo", "nom_ouvrage": "Forage de Kpeme", "existence_of_maintenance_plan": "<NA>", "current_status_of_the_site": null, "index_right": 52835.0, "grid_id": 52835.0, "FRI": 0.02903073236205448, "niveau_risque_inondation": "Faible" }, "geometry": { "type": "Point", "coordinates": [ 335571.062871642236132, 688172.851096895174123 ] } },
{ "type": "Feature", "properties": { "type_source": "TdE", "region": "Plateaux", "commune": "Haho 4", "canton": "Wahala", "nom_ouvrage": "Forage de Château d'Eau", "existence_of_maintenance_plan": "<NA>", "current_status_of_the_site": null, "index_right": 37311.0, "grid_id": 37311.0, "FRI": 0.026223693558111549, "niveau_risque_inondation": "Faible" }, "geometry": { "type": "Point", "coordinates": [ 297429.750269805779681, 793894.201785468263552 ] } }
]
}
