{
"type": "FeatureCollection",
"name": "coso_clean_mappable",
"crs": { "type": "name", "properties": { "name": "urn:ogc:def:crs:OGC:1.3:CRS84" } },
"features": [
{ "type": "Feature", "properties": { "id": 584, "title": "Construction d'un centre communautaire à Alégba  + forage photovoltaïque à ALEGBA", "type": "Forage Photovoltaïque (Centre communautaire)", "works_type": "Construction", "status": "Remise de l'ouvrage à la communauté 100.0%", "current_status_of_the_site": "Réception définitive", "progress_percent": 100.0, "existence_of_maintenance_plan": true, "wave": "3", "population": 795.0, "beneficiary_villages_count": 1, "direct_beneficiaries_men": 439.0, "direct_beneficiaries_women": 418.0, "work_completion_date": "2024-02-23T00:00:00", "official_handover_date_to_community": "2025-05-09T00:00:00", "location_name": "ALEGBA", "village": "ALEGBA", "canton": "BALANKA", "commune": "TCHAMBA 3", "prefecture": "TCHAMBA", "region": "CENTRALE", "latitude": 8.824055, "longitude": 1.606965, "is_mappable": true }, "geometry": { "type": "Point", "coordinates": [ 1.606965, 8.824055 ] } },
{ "type": "Feature", "properties": { "id": 585, "title": "Réalisation d'un forage photovoltaïque pour eau de boisson ", "type": "Forages photovoltaïques dans les communautés pour eau de boisson", "works_type": "Construction", "status": "Remise de l'ouvrage à la communauté 100.0%", "current_status_of_the_site": "Réception définitive", "progress_percent": 100.0, "existence_of_maintenance_plan": true, "wave": "3", "population": 447.0, "beneficiary_villages_count": 1, "direct_beneficiaries_men": 200.0, "direct_beneficiaries_women": 224.0, "work_completion_date": "2023-12-31T00:00:00", "official_handover_date_to_community": "2025-04-30T00:00:00", "location_name": "ATONTOMI", "village": "ATONTOMI", "canton": "BALANKA", "commune": "TCHAMBA 3", "prefecture": "TCHAMBA", "region": "CENTRALE", "latitude": 8.888017, "longitude": 1.577222, "is_mappable": true }, "geometry": { "type": "Point", "coordinates": [ 1.577222, 8.888017 ] } },
{ "type": "Feature", "properties": { "id": 587, "title": "Réalisation d'un forage photovoltaïque pour eau de boisson ", "type": "Forages photovoltaïques dans les communautés pour eau de boisson", "works_type": "Construction", "status": "Réception provisoire 100.0%", "current_status_of_the_site": "Réception provisoire", "progress_percent": 100.0, "existence_of_maintenance_plan": false, "wave": "3", "population": 400.0, "beneficiary_villages_count": 1, "direct_beneficiaries_men": 196.0, "direct_beneficiaries_women": 204.0, "work_completion_date": "2024-06-01T00:00:00", "official_handover_date_to_community": null, "location_name": "BELAGNI", "village": "BELAGNI", "canton": "BALANKA", "commune": "TCHAMBA 3", "prefecture": "TCHAMBA", "region": "CENTRALE", "latitude": 8.918368, "longitude": 1.614907, "is_mappable": true }, "geometry": { "type": "Point", "coordinates": [ 1.614907, 8.918368 ] } },
{ "type": "Feature", "properties": { "id": 590, "title": "Construction d'un bâtiment scolaire de 4 classes, bureau, magasin + forage au CEG Agbansikiti + équipements", "type": "Forages photovoltaïques dans les établissements scolaires", "works_type": "Construction", "status": "Remise de l'ouvrage à la communauté 100.0%", "current_status_of_the_site": "Réception définitive", "progress_percent": 100.0, "existence_of_maintenance_plan": false, "wave": "3", "population": 1300.0, "beneficiary_villages_count": 1, "direct_beneficiaries_men": 637.0, "direct_beneficiaries_women": 663.0, "work_completion_date": "2023-12-31T00:00:00", "official_handover_date_to_community": "2025-04-30T00:00:00", "location_name": "AGBANSIKITI", "village": "AGBANSIKITI", "canton": "KABOLI", "commune": "TCHAMBA 3", "prefecture": "TCHAMBA", "region": "CENTRALE", "latitude": 8.691495, "longitude": 1.619747, "is_mappable": true }, "geometry": { "type": "Point", "coordinates": [ 1.619747, 8.691495 ] } },
{ "type": "Feature", "properties": { "id": 591, "title": "Réalisation d'un forage photovoltaïque pour eau de boisson ", "type": "Forages photovoltaïques dans les communautés pour eau de boisson", "works_type": "Construction", "status": "Réception technique 100.0%", "current_status_of_the_site": "Réception provisoire", "progress_percent": 100.0, "existence_of_maintenance_plan": true, "wave": "3", "population": 1394.0, "beneficiary_villages_count": 1, "direct_beneficiaries_men": 683.0, "direct_beneficiaries_women": 711.0, "work_completion_date": "2023-12-01T00:00:00", "official_handover_date_to_community": null, "location_name": "ATAFA 2", "village": "ATAFA 2", "canton": "KABOLI", "commune": "TCHAMBA 3", "prefecture": "TCHAMBA", "region": "CENTRALE", "latitude": 8.694493, "longitude": 1.563569, "is_mappable": true }, "geometry": { "type": "Point", "coordinates": [ 1.563569, 8.694493 ] } },
{ "type": "Feature", "properties": { "id": 593, "title": "Construction d'un bâtiment scolaire de trois (03) classes, bureau, magasin + forage à l'EPP Boléa + équipements", "type": "Forages photovoltaïques dans les établissements scolaires", "works_type": "Construction", "status": "Réception définitive 100.0%", "current_status_of_the_site": "Réception définitive", "progress_percent": 100.0, "existence_of_maintenance_plan": false, "wave": "3", "population": 2500.0, "beneficiary_villages_count": 1, "direct_beneficiaries_men": 1225.0, "direct_beneficiaries_women": 1275.0, "work_completion_date": "2024-06-01T00:00:00", "official_handover_date_to_community": "2025-08-27T00:00:00", "location_name": "BOLEA", "village": "BOLEA", "canton": "KABOLI", "commune": "TCHAMBA 3", "prefecture": "TCHAMBA", "region": "CENTRALE", "latitude": 8.528625, "longitude": 1.612648, "is_mappable": true }, "geometry": { "type": "Point", "coordinates": [ 1.612648, 8.528625 ] } },
{ "type": "Feature", "properties": { "id": 595, "title": "Construction d'un bâtiment scolaire de trois (03) classes, bureau, magasin + forage + blocs de latrines à l'EPP Dogodè + équipements ", "type": "Forages photovoltaïques dans les établissements scolaires", "works_type": "Construction", "status": "Remise de l'ouvrage à la communauté 100.0%", "current_status_of_the_site": "Réception définitive", "progress_percent": 100.0, "existence_of_maintenance_plan": false, "wave": "3", "population": 752.0, "beneficiary_villages_count": 1, "direct_beneficiaries_men": 352.0, "direct_beneficiaries_women": 400.0, "work_completion_date": "2024-02-23T00:00:00", "official_handover_date_to_community": "2025-05-09T00:00:00", "location_name": "DOGODE", "village": "DOGODE", "canton": "KABOLI", "commune": "TCHAMBA 3", "prefecture": "TCHAMBA", "region": "CENTRALE", "latitude": 8.786747, "longitude": 1.630917, "is_mappable": true }, "geometry": { "type": "Point", "coordinates": [ 1.630917, 8.786747 ] } },
{ "type": "Feature", "properties": { "id": 598, "title": "Réalisation d'un forage photovoltaïque pour eau de boisson ", "type": "Forages photovoltaïques dans les communautés pour eau de boisson", "works_type": "Construction", "status": "Réception technique 100.0%", "current_status_of_the_site": "Réception provisoire", "progress_percent": 100.0, "existence_of_maintenance_plan": true, "wave": "3", "population": 1394.0, "beneficiary_villages_count": 1, "direct_beneficiaries_men": 645.0, "direct_beneficiaries_women": 648.0, "work_completion_date": "2024-08-18T00:00:00", "official_handover_date_to_community": "2024-11-13T00:00:00", "location_name": "KALA 2", "village": "KALA 2", "canton": "KABOLI", "commune": "TCHAMBA 3", "prefecture": "TCHAMBA", "region": "CENTRALE", "latitude": 8.673588, "longitude": 1.604208, "is_mappable": true }, "geometry": { "type": "Point", "coordinates": [ 1.604208, 8.673588 ] } },
{ "type": "Feature", "properties": { "id": 603, "title": "Réalisation d'un forage photovoltaïque pour eau de boisson ", "type": "Forages photovoltaïques dans les communautés pour eau de boisson", "works_type": "Construction", "status": "Remise de l'ouvrage à la communauté 100.0%", "current_status_of_the_site": "Réception définitive", "progress_percent": 100.0, "existence_of_maintenance_plan": true, "wave": "3", "population": 600.0, "beneficiary_villages_count": 1, "direct_beneficiaries_men": 294.0, "direct_beneficiaries_women": 306.0, "work_completion_date": "2024-02-23T00:00:00", "official_handover_date_to_community": "2025-05-08T00:00:00", "location_name": "ODORIN", "village": "ODORIN", "canton": "KABOLI", "commune": "TCHAMBA 3", "prefecture": "TCHAMBA", "region": "CENTRALE", "latitude": 8.594615, "longitude": 1.616948, "is_mappable": true }, "geometry": { "type": "Point", "coordinates": [ 1.616948, 8.594615 ] } },
{ "type": "Feature", "properties": { "id": 607, "title": "Construction d'un centre communautaire + forage photovoltaïque", "type": "Forage Photovoltaïque (Centre communautaire)", "works_type": "Construction", "status": "Remise de l'ouvrage à la communauté 100.0%", "current_status_of_the_site": "Réception définitive", "progress_percent": 100.0, "existence_of_maintenance_plan": false, "wave": "3", "population": 841.0, "beneficiary_villages_count": 1, "direct_beneficiaries_men": 312.0, "direct_beneficiaries_women": 445.0, "work_completion_date": "2023-12-31T00:00:00", "official_handover_date_to_community": "2025-04-30T00:00:00", "location_name": "SOLIMBIA", "village": "SOLIMBIA", "canton": "KABOLI", "commune": "TCHAMBA 3", "prefecture": "TCHAMBA", "region": "CENTRALE", "latitude": 8.764615, "longitude": 1.617617, "is_mappable": true }, "geometry": { "type": "Point", "coordinates": [ 1.617617, 8.764615 ] } },
{ "type": "Feature", "properties": { "id": 611, "title": "Construction d’un bâtiment scolaire de 4 classes +bureau – magasin +forage +mobilier+ 2 blocs latrines au CEG", "type": "Forages photovoltaïques dans les établissements scolaires", "works_type": "Construction", "status": "Remise de l'ouvrage à la communauté 100.0%", "current_status_of_the_site": "Réception définitive", "progress_percent": 100.0, "existence_of_maintenance_plan": true, "wave": "3", "population": 5545.0, "beneficiary_villages_count": 1, "direct_beneficiaries_men": 1911.0, "direct_beneficiaries_women": 3149.0, "work_completion_date": "2023-12-31T00:00:00", "official_handover_date_to_community": "2025-02-10T00:00:00", "location_name": "ASSERE", "village": "ASSERE", "canton": "PAGOUDA", "commune": "BINAH 1", "prefecture": "BINAH", "region": "KARA", "latitude": 9.799855, "longitude": 1.298193, "is_mappable": true }, "geometry": { "type": "Point", "coordinates": [ 1.298193, 9.799855 ] } },
{ "type": "Feature", "properties": { "id": 615, "title": "Construction d’un centre communautaire+ forage+équipement+2 chambres à KAGNISSI", "type": "Forage Photovoltaïque (Centre communautaire)", "works_type": "Construction", "status": "Remise de l'ouvrage à la communauté 100.0%", "current_status_of_the_site": "Réception définitive", "progress_percent": 100.0, "existence_of_maintenance_plan": true, "wave": "3", "population": 4000.0, "beneficiary_villages_count": 1, "direct_beneficiaries_men": 1241.0, "direct_beneficiaries_women": 1511.0, "work_completion_date": "2024-04-25T00:00:00", "official_handover_date_to_community": "2025-05-27T00:00:00", "location_name": "KAGNISSI", "village": "KAGNISSI", "canton": "PAGOUDA", "commune": "BINAH 1", "prefecture": "BINAH", "region": "KARA", "latitude": 9.7638567, "longitude": 1.3124717, "is_mappable": true }, "geometry": { "type": "Point", "coordinates": [ 1.3124717, 9.7638567 ] } },
{ "type": "Feature", "properties": { "id": 617, "title": "Construction d’un bâtiment scolaire de 3 classes+bureau-magasin+forage+2 blocs latrines+ mobilier à l’EPP", "type": "Forages photovoltaïques dans les établissements scolaires", "works_type": "Construction", "status": "Remise de l'ouvrage à la communauté 100.0%", "current_status_of_the_site": "Réception définitive", "progress_percent": 100.0, "existence_of_maintenance_plan": true, "wave": "3", "population": 1984.0, "beneficiary_villages_count": 1, "direct_beneficiaries_men": 972.0, "direct_beneficiaries_women": 1012.0, "work_completion_date": "2023-12-31T00:00:00", "official_handover_date_to_community": "2025-02-10T00:00:00", "location_name": "KAWA", "village": "KAWA", "canton": "PAGOUDA", "commune": "BINAH 1", "prefecture": "BINAH", "region": "KARA", "latitude": 9.73982, "longitude": 1.3079933, "is_mappable": true }, "geometry": { "type": "Point", "coordinates": [ 1.3079933, 9.73982 ] } },
{ "type": "Feature", "properties": { "id": 619, "title": "Construction d’un bâtiment scolaire de 2 classes (au JEP) +bureau-magasin+forage+2 blocs latrines+ mobilier", "type": "Forages photovoltaïques dans les établissements scolaires", "works_type": "Construction", "status": "Remise de l'ouvrage à la communauté 100.0%", "current_status_of_the_site": "Réception définitive", "progress_percent": 100.0, "existence_of_maintenance_plan": true, "wave": "3", "population": 1011.0, "beneficiary_villages_count": 1, "direct_beneficiaries_men": 446.0, "direct_beneficiaries_women": 565.0, "work_completion_date": "2023-11-03T00:00:00", "official_handover_date_to_community": "2025-02-10T00:00:00", "location_name": "KPANAHORE", "village": "KPANAHORE", "canton": "PAGOUDA", "commune": "BINAH 1", "prefecture": "BINAH", "region": "KARA", "latitude": 9.75361, "longitude": 1.331408, "is_mappable": true }, "geometry": { "type": "Point", "coordinates": [ 1.331408, 9.75361 ] } },
{ "type": "Feature", "properties": { "id": 622, "title": "Construction d’un bâtiment scolaire de 2 classes (au JEP) +bureau-magasin+forage+2 blocs latrines +mobilier", "type": "Forages photovoltaïques dans les établissements scolaires", "works_type": "Construction", "status": "Remise de l'ouvrage à la communauté 100.0%", "current_status_of_the_site": "Réception définitive", "progress_percent": 100.0, "existence_of_maintenance_plan": true, "wave": "3", "population": 590.0, "beneficiary_villages_count": 1, "direct_beneficiaries_men": 303.0, "direct_beneficiaries_women": 287.0, "work_completion_date": "2023-12-31T00:00:00", "official_handover_date_to_community": "2025-02-10T00:00:00", "location_name": "SOMSIA", "village": "SOMSIA", "canton": "PAGOUDA", "commune": "BINAH 1", "prefecture": "BINAH", "region": "KARA", "latitude": 9.7106983, "longitude": 1.3185617, "is_mappable": true }, "geometry": { "type": "Point", "coordinates": [ 1.3185617, 9.7106983 ] } },
{ "type": "Feature", "properties": { "id": 625, "title": "Construction d’un bâtiment scolaire de 4 classes +bureau – magasin +forage +mobilier+ 1 bloc administratif au CEG", "type": "Forages photovoltaïques dans les établissements scolaires", "works_type": "Construction", "status": "Remise de l'ouvrage à la communauté 100.0%", "current_status_of_the_site": "Réception définitive", "progress_percent": 100.0, "existence_of_maintenance_plan": true, "wave": "3", "population": 1845.0, "beneficiary_villages_count": 1, "direct_beneficiaries_men": 795.0, "direct_beneficiaries_women": 1050.0, "work_completion_date": "2024-03-15T00:00:00", "official_handover_date_to_community": "2025-06-04T00:00:00", "location_name": "WAZE", "village": "WAZE", "canton": "PAGOUDA", "commune": "BINAH 1", "prefecture": "BINAH", "region": "KARA", "latitude": 9.744758, "longitude": 1.320824, "is_mappable": true }, "geometry": { "type": "Point", "coordinates": [ 1.320824, 9.744758 ] } },
{ "type": "Feature", "properties": { "id": 631, "title": "Réalisation d’un forage photovoltaïque pour eau de boisson dans le quartier Peuhl", "type": "Forages photovoltaïques dans les communautés pour eau de boisson", "works_type": "Construction", "status": "Remise de l'ouvrage à la communauté 100.0%", "current_status_of_the_site": "Réception définitive", "progress_percent": 100.0, "existence_of_maintenance_plan": true, "wave": "3", "population": 939.0, "beneficiary_villages_count": 1, "direct_beneficiaries_men": 370.0, "direct_beneficiaries_women": 569.0, "work_completion_date": "2023-12-31T00:00:00", "official_handover_date_to_community": "2025-02-10T00:00:00", "location_name": "KADJANGA", "village": "KADJANGA", "canton": "KETAO", "commune": "BINAH 2", "prefecture": "BINAH", "region": "KARA", "latitude": 9.724313, "longitude": 1.35165, "is_mappable": true }, "geometry": { "type": "Point", "coordinates": [ 1.35165, 9.724313 ] } },
{ "type": "Feature", "properties": { "id": 636, "title": "Réalisation d’un forage photovoltaïque pour eau de boisson dans le quartier Peuhl", "type": "Forages photovoltaïques dans les communautés pour eau de boisson", "works_type": "Construction", "status": "Remise de l'ouvrage à la communauté 100.0%", "current_status_of_the_site": "Réception définitive", "progress_percent": 100.0, "existence_of_maintenance_plan": true, "wave": "3", "population": 2007.0, "beneficiary_villages_count": 1, "direct_beneficiaries_men": 969.0, "direct_beneficiaries_women": 1038.0, "work_completion_date": "2023-11-22T00:00:00", "official_handover_date_to_community": "2025-02-10T00:00:00", "location_name": "TERODA", "village": "TERODA", "canton": "KETAO", "commune": "BINAH 2", "prefecture": "BINAH", "region": "KARA", "latitude": 9.671325, "longitude": 1.357624, "is_mappable": true }, "geometry": { "type": "Point", "coordinates": [ 1.357624, 9.671325 ] } },
{ "type": "Feature", "properties": { "id": 639, "title": "Construction d'un centre communautaire avec charpente métallique + forage photovoltaïque à BOADE CENTRE", "type": "Forage Photovoltaïque (Centre communautaire)", "works_type": "Construction", "status": "Remise de l'ouvrage à la communauté 100.0%", "current_status_of_the_site": "Réception définitive", "progress_percent": 100.0, "existence_of_maintenance_plan": true, "wave": "1", "population": 1618.0, "beneficiary_villages_count": 1, "direct_beneficiaries_men": 747.0, "direct_beneficiaries_women": 326.0, "work_completion_date": "2023-08-16T00:00:00", "official_handover_date_to_community": "2025-12-03T00:00:00", "location_name": "BOADE CENTRE", "village": "BOADE CENTRE", "canton": "BOADE", "commune": "CINKASSE 1", "prefecture": "CINKASSE", "region": "SAVANES", "latitude": 11.137485, "longitude": -0.081247, "is_mappable": true }, "geometry": { "type": "Point", "coordinates": [ -0.081247, 11.137485 ] } },
{ "type": "Feature", "properties": { "id": 647, "title": "Réalisation d'un forage photovoltaïque ", "type": "Forages photovoltaïques dans les communautés pour eau de boisson", "works_type": "Construction", "status": "Remise de l'ouvrage à la communauté 100.0%", "current_status_of_the_site": "Réception définitive", "progress_percent": 100.0, "existence_of_maintenance_plan": false, "wave": "1", "population": 517.0, "beneficiary_villages_count": 1, "direct_beneficiaries_men": 267.0, "direct_beneficiaries_women": 306.0, "work_completion_date": "2023-08-29T00:00:00", "official_handover_date_to_community": "2025-06-19T00:00:00", "location_name": "NAPOGO", "village": "NAPOGO", "canton": "BOADE", "commune": "CINKASSE 1", "prefecture": "CINKASSE", "region": "SAVANES", "latitude": 11.10989, "longitude": -0.081831, "is_mappable": true }, "geometry": { "type": "Point", "coordinates": [ -0.081831, 11.10989 ] } },
{ "type": "Feature", "properties": { "id": 648, "title": "Réalisation d'un forage photovoltaïque ", "type": "Forages photovoltaïques dans les communautés pour eau de boisson", "works_type": "Construction", "status": "Remise de l'ouvrage à la communauté 100.0%", "current_status_of_the_site": "Réception définitive", "progress_percent": 100.0, "existence_of_maintenance_plan": false, "wave": "1", "population": 484.0, "beneficiary_villages_count": 1, "direct_beneficiaries_men": 172.0, "direct_beneficiaries_women": 312.0, "work_completion_date": "2023-08-17T00:00:00", "official_handover_date_to_community": "2025-05-15T00:00:00", "location_name": "SANDOGO", "village": "SANDOGO", "canton": "BOADE", "commune": "CINKASSE 1", "prefecture": "CINKASSE", "region": "SAVANES", "latitude": 11.099809, "longitude": -0.067271, "is_mappable": true }, "geometry": { "type": "Point", "coordinates": [ -0.067271, 11.099809 ] } },
{ "type": "Feature", "properties": { "id": 649, "title": "Réalisation d'un forage photovoltaïque ", "type": "Forages photovoltaïques dans les communautés pour eau de boisson", "works_type": "Construction", "status": "Remise de l'ouvrage à la communauté 100.0%", "current_status_of_the_site": "Réception définitive", "progress_percent": 100.0, "existence_of_maintenance_plan": false, "wave": "1", "population": 1103.0, "beneficiary_villages_count": 2, "direct_beneficiaries_men": 535.0, "direct_beneficiaries_women": 568.0, "work_completion_date": "2023-08-17T00:00:00", "official_handover_date_to_community": "2025-05-21T00:00:00", "location_name": "WOURI-WOURI", "village": "WOURI-WOURI", "canton": "BOADE", "commune": "CINKASSE 1", "prefecture": "CINKASSE", "region": "SAVANES", "latitude": 11.116633, "longitude": -0.03386, "is_mappable": true }, "geometry": { "type": "Point", "coordinates": [ -0.03386, 11.116633 ] } },
{ "type": "Feature", "properties": { "id": 650, "title": "Réalisation d'un forage photovoltaïque ", "type": "Forages photovoltaïques dans les communautés pour eau de boisson", "works_type": "Construction", "status": "Réception définitive 100.0%", "current_status_of_the_site": "Réception définitive", "progress_percent": 100.0, "existence_of_maintenance_plan": false, "wave": "1", "population": 539.0, "beneficiary_villages_count": 1, "direct_beneficiaries_men": 230.0, "direct_beneficiaries_women": 309.0, "work_completion_date": "2023-08-17T00:00:00", "official_handover_date_to_community": "2025-05-15T00:00:00", "location_name": "ZAMISSI", "village": "ZAMISSI", "canton": "BOADE", "commune": "CINKASSE 1", "prefecture": "CINKASSE", "region": "SAVANES", "latitude": 11.089657, "longitude": -0.066757, "is_mappable": true }, "geometry": { "type": "Point", "coordinates": [ -0.066757, 11.089657 ] } },
{ "type": "Feature", "properties": { "id": 651, "title": "Réalisation d'un forage photovoltaïque ", "type": "Forages photovoltaïques dans les communautés pour eau de boisson", "works_type": "Construction", "status": "Remise de l'ouvrage à la communauté 100.0%", "current_status_of_the_site": "Réception définitive", "progress_percent": 100.0, "existence_of_maintenance_plan": false, "wave": "1", "population": 1821.0, "beneficiary_villages_count": 1, "direct_beneficiaries_men": 635.0, "direct_beneficiaries_women": 843.0, "work_completion_date": "2023-08-29T00:00:00", "official_handover_date_to_community": "2025-04-10T00:00:00", "location_name": "ZINTANGO", "village": "ZINTANGO", "canton": "BOADE", "commune": "CINKASSE 1", "prefecture": "CINKASSE", "region": "SAVANES", "latitude": 11.125808, "longitude": -0.08592, "is_mappable": true }, "geometry": { "type": "Point", "coordinates": [ -0.08592, 11.125808 ] } },
{ "type": "Feature", "properties": { "id": 652, "title": "Réalisation d'un forage photovoltaïque ", "type": "Forages photovoltaïques dans les communautés pour eau de boisson", "works_type": "Construction", "status": "Réception définitive 100.0%", "current_status_of_the_site": "Réception définitive", "progress_percent": 100.0, "existence_of_maintenance_plan": false, "wave": "1", "population": 589.0, "beneficiary_villages_count": 1, "direct_beneficiaries_men": 318.0, "direct_beneficiaries_women": 460.0, "work_completion_date": "2023-08-18T00:00:00", "official_handover_date_to_community": "2025-02-07T00:00:00", "location_name": "BARGOUNDE", "village": "BARGOUNDE", "canton": "CINKASSE", "commune": "CINKASSE 1", "prefecture": "CINKASSE", "region": "SAVANES", "latitude": 11.081848, "longitude": 0.015431, "is_mappable": true }, "geometry": { "type": "Point", "coordinates": [ 0.015431, 11.081848 ] } },
{ "type": "Feature", "properties": { "id": 659, "title": "Réalisation d'un forage photovoltaïque", "type": "Forages photovoltaïques dans les communautés pour eau de boisson", "works_type": "Construction", "status": "Remise de l'ouvrage à la communauté 100.0%", "current_status_of_the_site": "Réception définitive", "progress_percent": 100.0, "existence_of_maintenance_plan": true, "wave": "1", "population": 362.0, "beneficiary_villages_count": 1, "direct_beneficiaries_men": 170.0, "direct_beneficiaries_women": 192.0, "work_completion_date": "2023-11-02T00:00:00", "official_handover_date_to_community": "2025-03-26T00:00:00", "location_name": "KODAGO", "village": "KODAGO", "canton": "CINKASSE", "commune": "CINKASSE 1", "prefecture": "CINKASSE", "region": "SAVANES", "latitude": 11.10398, "longitude": 0.042313, "is_mappable": true }, "geometry": { "type": "Point", "coordinates": [ 0.042313, 11.10398 ] } },
{ "type": "Feature", "properties": { "id": 676, "title": "Réalisation d'un forage photovoltaïque", "type": "Forages photovoltaïques dans les communautés pour eau de boisson", "works_type": "Construction", "status": "Réception définitive 100.0%", "current_status_of_the_site": "Réception définitive", "progress_percent": 100.0, "existence_of_maintenance_plan": false, "wave": "1", "population": 10152.0, "beneficiary_villages_count": 3, "direct_beneficiaries_men": 624.0, "direct_beneficiaries_women": 991.0, "work_completion_date": "2023-08-23T00:00:00", "official_handover_date_to_community": "2025-02-07T00:00:00", "location_name": "SAYODE", "village": "SAYODE", "canton": "CINKASSE", "commune": "CINKASSE 1", "prefecture": "CINKASSE", "region": "SAVANES", "latitude": 11.07053, "longitude": 0.019593, "is_mappable": true }, "geometry": { "type": "Point", "coordinates": [ 0.019593, 11.07053 ] } },
{ "type": "Feature", "properties": { "id": 677, "title": "Réalisation d'un forage photovoltaïque", "type": "Forages photovoltaïques dans les communautés pour eau de boisson", "works_type": "Construction", "status": "Réception définitive 100.0%", "current_status_of_the_site": "Réception définitive", "progress_percent": 100.0, "existence_of_maintenance_plan": true, "wave": "1", "population": 1682.0, "beneficiary_villages_count": 1, "direct_beneficiaries_men": 639.0, "direct_beneficiaries_women": 1043.0, "work_completion_date": "2023-08-23T00:00:00", "official_handover_date_to_community": "2025-02-06T00:00:00", "location_name": "TIMANGA (CINKASSE)", "village": "TIMANGA (CINKASSE)", "canton": "CINKASSE", "commune": "CINKASSE 1", "prefecture": "CINKASSE", "region": "SAVANES", "latitude": 11.083669, "longitude": 0.031963, "is_mappable": true }, "geometry": { "type": "Point", "coordinates": [ 0.031963, 11.083669 ] } },
{ "type": "Feature", "properties": { "id": 680, "title": "Réalisation d'un forage photovoltaïque", "type": "Forages photovoltaïques dans les communautés pour eau de boisson", "works_type": "Construction", "status": "Remise de l'ouvrage à la communauté 100.0%", "current_status_of_the_site": "Réception définitive", "progress_percent": 100.0, "existence_of_maintenance_plan": false, "wave": "1", "population": 854.0, "beneficiary_villages_count": 1, "direct_beneficiaries_men": 342.0, "direct_beneficiaries_women": 512.0, "work_completion_date": "2023-05-19T00:00:00", "official_handover_date_to_community": "2025-03-25T00:00:00", "location_name": "YIEGOU (CINKASSE)", "village": "YIEGOU (CINKASSE)", "canton": "CINKASSE", "commune": "CINKASSE 1", "prefecture": "CINKASSE", "region": "SAVANES", "latitude": 11.098188, "longitude": 0.036734, "is_mappable": true }, "geometry": { "type": "Point", "coordinates": [ 0.036734, 11.098188 ] } },
{ "type": "Feature", "properties": { "id": 682, "title": "Réalisation d'un forage photovoltaïque maraicher", "type": "Forages photovoltaïques pour les activités maraîchères", "works_type": "Construction", "status": "Réception définitive 100.0%", "current_status_of_the_site": "Réception définitive", "progress_percent": 100.0, "existence_of_maintenance_plan": false, "wave": "1", "population": 650.0, "beneficiary_villages_count": 1, "direct_beneficiaries_men": 312.0, "direct_beneficiaries_women": 338.0, "work_completion_date": "2023-04-18T00:00:00", "official_handover_date_to_community": "2024-08-22T00:00:00", "location_name": "BINGOULA", "village": "BINGOULA", "canton": "GNOAGA", "commune": "CINKASSE 1", "prefecture": "CINKASSE", "region": "SAVANES", "latitude": 11.1176724, "longitude": -0.081247, "is_mappable": true }, "geometry": { "type": "Point", "coordinates": [ -0.081247, 11.1176724 ] } },
{ "type": "Feature", "properties": { "id": 685, "title": "Construction d'un centre communautaire avec charpente métallique + forage photovoltaïque à GNOAGA CENTRE", "type": "Forage Photovoltaïque (Centre communautaire)", "works_type": "Construction", "status": "Réception définitive 100.0%", "current_status_of_the_site": "Réception définitive", "progress_percent": 100.0, "existence_of_maintenance_plan": false, "wave": "1", "population": 593.0, "beneficiary_villages_count": 2, "direct_beneficiaries_men": 199.0, "direct_beneficiaries_women": 394.0, "work_completion_date": "2023-08-30T00:00:00", "official_handover_date_to_community": "2025-12-03T00:00:00", "location_name": "GNOAGA CENTRE", "village": "GNOAGA CENTRE", "canton": "GNOAGA", "commune": "CINKASSE 1", "prefecture": "CINKASSE", "region": "SAVANES", "latitude": 11.105457, "longitude": -0.103617, "is_mappable": true }, "geometry": { "type": "Point", "coordinates": [ -0.103617, 11.105457 ] } },
{ "type": "Feature", "properties": { "id": 688, "title": "Réalisation d'un forage photovoltaïque maraicher", "type": "Forages photovoltaïques pour les activités maraîchères", "works_type": "Construction", "status": "Réception définitive 100.0%", "current_status_of_the_site": "Réception définitive", "progress_percent": 100.0, "existence_of_maintenance_plan": false, "wave": "1", "population": 271.0, "beneficiary_villages_count": 2, "direct_beneficiaries_men": 130.0, "direct_beneficiaries_women": 141.0, "work_completion_date": "2023-03-09T00:00:00", "official_handover_date_to_community": "2024-08-22T00:00:00", "location_name": "YOUMAKOU", "village": "YOUMAKOU", "canton": "GNOAGA", "commune": "CINKASSE 1", "prefecture": "CINKASSE", "region": "SAVANES", "latitude": 11.099301, "longitude": -0.10443, "is_mappable": true }, "geometry": { "type": "Point", "coordinates": [ -0.10443, 11.099301 ] } },
{ "type": "Feature", "properties": { "id": 693, "title": "Réalisation d'un forage photovoltaïque ", "type": "Forages photovoltaïques dans les communautés pour eau de boisson", "works_type": "Construction", "status": "Réception définitive 100.0%", "current_status_of_the_site": "Réception définitive", "progress_percent": 100.0, "existence_of_maintenance_plan": false, "wave": "1", "population": 900.0, "beneficiary_villages_count": 1, "direct_beneficiaries_men": 261.0, "direct_beneficiaries_women": 293.0, "work_completion_date": "2023-09-14T00:00:00", "official_handover_date_to_community": "2025-06-19T00:00:00", "location_name": "KODINZOAGA", "village": "KODINZOAGA", "canton": "GOULOUNGOUSSI", "commune": "CINKASSE 1", "prefecture": "CINKASSE", "region": "SAVANES", "latitude": 11.139244, "longitude": -0.113093, "is_mappable": true }, "geometry": { "type": "Point", "coordinates": [ -0.113093, 11.139244 ] } },
{ "type": "Feature", "properties": { "id": 695, "title": "Construction d'un centre communautaire avec charpente métallique + forage photovoltaïque à KOULTAMSÉ", "type": "Forage Photovoltaïque (Centre communautaire)", "works_type": "Construction", "status": "Remise de l'ouvrage à la communauté 100.0%", "current_status_of_the_site": "Réception définitive", "progress_percent": 100.0, "existence_of_maintenance_plan": false, "wave": "1", "population": 654.0, "beneficiary_villages_count": 1, "direct_beneficiaries_men": 224.0, "direct_beneficiaries_women": 282.0, "work_completion_date": "2023-08-04T00:00:00", "official_handover_date_to_community": "2025-05-16T00:00:00", "location_name": "KOULTAMSÉ", "village": "KOULTAMSÉ", "canton": "GOULOUNGOUSSI", "commune": "CINKASSE 1", "prefecture": "CINKASSE", "region": "SAVANES", "latitude": 11.125092, "longitude": -0.110754, "is_mappable": true }, "geometry": { "type": "Point", "coordinates": [ -0.110754, 11.125092 ] } },
{ "type": "Feature", "properties": { "id": 697, "title": "Réalisation d'un forage photovoltaïque ", "type": "Forages photovoltaïques dans les communautés pour eau de boisson", "works_type": "Construction", "status": "Réception définitive 100.0%", "current_status_of_the_site": "Réception définitive", "progress_percent": 100.0, "existence_of_maintenance_plan": false, "wave": "1", "population": 329.0, "beneficiary_villages_count": 1, "direct_beneficiaries_men": 74.0, "direct_beneficiaries_women": 76.0, "work_completion_date": "2023-11-17T00:00:00", "official_handover_date_to_community": "2025-05-16T00:00:00", "location_name": "SINOGO", "village": "SINOGO", "canton": "GOULOUNGOUSSI", "commune": "CINKASSE 1", "prefecture": "CINKASSE", "region": "SAVANES", "latitude": 11.125092, "longitude": -0.110754, "is_mappable": true }, "geometry": { "type": "Point", "coordinates": [ -0.110754, 11.125092 ] } },
{ "type": "Feature", "properties": { "id": 698, "title": "Réalisation d'un forage photovoltaïque ", "type": "Forages photovoltaïques dans les communautés pour eau de boisson", "works_type": "Construction", "status": "Réception définitive 100.0%", "current_status_of_the_site": "Réception définitive", "progress_percent": 100.0, "existence_of_maintenance_plan": true, "wave": "1", "population": 341.0, "beneficiary_villages_count": 1, "direct_beneficiaries_men": 164.0, "direct_beneficiaries_women": 177.0, "work_completion_date": "2023-08-16T00:00:00", "official_handover_date_to_community": "2025-12-03T00:00:00", "location_name": "TENNOGO", "village": "TENNOGO", "canton": "GOULOUNGOUSSI", "commune": "CINKASSE 1", "prefecture": "CINKASSE", "region": "SAVANES", "latitude": 11.106438, "longitude": -0.112391, "is_mappable": true }, "geometry": { "type": "Point", "coordinates": [ -0.112391, 11.106438 ] } },
{ "type": "Feature", "properties": { "id": 699, "title": "Réalisation d'un forage photovoltaïque ", "type": "Forages photovoltaïques dans les communautés pour eau de boisson", "works_type": "Construction", "status": "Réception définitive 100.0%", "current_status_of_the_site": "Réception provisoire", "progress_percent": 100.0, "existence_of_maintenance_plan": false, "wave": "1", "population": 456.0, "beneficiary_villages_count": 1, "direct_beneficiaries_men": 122.0, "direct_beneficiaries_women": 106.0, "work_completion_date": "2023-11-17T00:00:00", "official_handover_date_to_community": null, "location_name": "ZOUBEKO", "village": "ZOUBEKO", "canton": "GOULOUNGOUSSI", "commune": "CINKASSE 1", "prefecture": "CINKASSE", "region": "SAVANES", "latitude": 11.110269, "longitude": -0.127504, "is_mappable": true }, "geometry": { "type": "Point", "coordinates": [ -0.127504, 11.110269 ] } },
{ "type": "Feature", "properties": { "id": 723, "title": "Réalisation d'un forage photovoltaïque ", "type": "Forages photovoltaïques dans les communautés pour eau de boisson", "works_type": "Construction", "status": "Remise de l'ouvrage à la communauté 100.0%", "current_status_of_the_site": "Réception définitive", "progress_percent": 100.0, "existence_of_maintenance_plan": false, "wave": "1", "population": 995.0, "beneficiary_villages_count": 1, "direct_beneficiaries_men": 422.0, "direct_beneficiaries_women": 573.0, "work_completion_date": "2023-11-23T00:00:00", "official_handover_date_to_community": "2025-04-17T00:00:00", "location_name": "DATOULONTE (TIMBOU)", "village": "DATOULONTE (TIMBOU)", "canton": "TIMBOU", "commune": "CINKASSE 2", "prefecture": "CINKASSE", "region": "SAVANES", "latitude": 10.989956, "longitude": 0.141467, "is_mappable": true }, "geometry": { "type": "Point", "coordinates": [ 0.141467, 10.989956 ] } },
{ "type": "Feature", "properties": { "id": 735, "title": "Réalisation d'un forage photovoltaïque ", "type": "Forages photovoltaïques dans les communautés pour eau de boisson", "works_type": "Construction", "status": "Remise de l'ouvrage à la communauté 100.0%", "current_status_of_the_site": "Réception définitive", "progress_percent": 100.0, "existence_of_maintenance_plan": false, "wave": "1", "population": 690.0, "beneficiary_villages_count": 1, "direct_beneficiaries_men": 290.0, "direct_beneficiaries_women": 400.0, "work_completion_date": "2023-08-17T00:00:00", "official_handover_date_to_community": "2025-03-20T00:00:00", "location_name": "NAMBUITITE TIMBOU", "village": "NAMBUITITE TIMBOU", "canton": "TIMBOU", "commune": "CINKASSE 2", "prefecture": "CINKASSE", "region": "SAVANES", "latitude": 11.033372, "longitude": 0.070502, "is_mappable": true }, "geometry": { "type": "Point", "coordinates": [ 0.070502, 11.033372 ] } },
{ "type": "Feature", "properties": { "id": 762, "title": "Construction d'un bâtiment scolaire de trois classes + bureau et magasin + forage photovoltaïque à EPP Tomole", "type": "Forages photovoltaïques dans les établissements scolaires", "works_type": "Construction", "status": "Réception provisoire 100.0%", "current_status_of_the_site": "Réception provisoire", "progress_percent": 0.0, "existence_of_maintenance_plan": false, "wave": "2", "population": 411.0, "beneficiary_villages_count": 1, "direct_beneficiaries_men": 191.0, "direct_beneficiaries_women": 220.0, "work_completion_date": "2025-08-14T00:00:00", "official_handover_date_to_community": null, "location_name": "TOMONLE", "village": "TOMONLE", "canton": "KOUNDJOARE", "commune": "KPENDJAL 1", "prefecture": "KPENDJAL", "region": "SAVANES", "latitude": 10.884821, "longitude": 0.669152, "is_mappable": true }, "geometry": { "type": "Point", "coordinates": [ 0.669152, 10.884821 ] } },
{ "type": "Feature", "properties": { "id": 770, "title": "Construction d’un centre communautaire à Mandouri Centre + forage photovoltaïque", "type": "Forage Photovoltaïque (Centre communautaire)", "works_type": "Construction", "status": "Réception définitive 100.0%", "current_status_of_the_site": "Réception définitive", "progress_percent": 0.0, "existence_of_maintenance_plan": false, "wave": "2", "population": 6700.0, "beneficiary_villages_count": 1, "direct_beneficiaries_men": 2000.0, "direct_beneficiaries_women": 4700.0, "work_completion_date": "2024-06-19T00:00:00", "official_handover_date_to_community": "2025-08-28T00:00:00", "location_name": "MANDOURI CENTRE", "village": "MANDOURI CENTRE", "canton": "MANDOURI", "commune": "KPENDJAL 1", "prefecture": "KPENDJAL", "region": "SAVANES", "latitude": 10.846096, "longitude": 0.817863, "is_mappable": true }, "geometry": { "type": "Point", "coordinates": [ 0.817863, 10.846096 ] } },
{ "type": "Feature", "properties": { "id": 846, "title": "Construction d'un centre communautaire à NALI ANGOH", "type": "Forage Photovoltaïque (Centre communautaire)", "works_type": "Construction", "status": "Remise de l'ouvrage à la communauté 100.0%", "current_status_of_the_site": "Réception provisoire", "progress_percent": 100.0, "existence_of_maintenance_plan": true, "wave": "4", "population": 942.0, "beneficiary_villages_count": 1, "direct_beneficiaries_men": 440.0, "direct_beneficiaries_women": 502.0, "work_completion_date": "2024-09-24T00:00:00", "official_handover_date_to_community": "2025-01-15T00:00:00", "location_name": "NALI ANGOH", "village": "NALI ANGOH", "canton": "NALI", "commune": "OTI SUD 2", "prefecture": "OTI SUD", "region": "SAVANES", "latitude": 10.0454774, "longitude": 0.4536523, "is_mappable": true }, "geometry": { "type": "Point", "coordinates": [ 0.4536523, 10.0454774 ] } },
{ "type": "Feature", "properties": { "id": 859, "title": "Installation d'un forage photovoltaïque pour le maraichage", "type": "Forages photovoltaïques pour les activités maraîchères", "works_type": "Construction", "status": "Remise de l'ouvrage à la communauté 100.0%", "current_status_of_the_site": "Réception provisoire", "progress_percent": 100.0, "existence_of_maintenance_plan": true, "wave": "4", "population": 628.0, "beneficiary_villages_count": 1, "direct_beneficiaries_men": 251.0, "direct_beneficiaries_women": 377.0, "work_completion_date": "2024-12-30T00:00:00", "official_handover_date_to_community": "2025-01-22T00:00:00", "location_name": "KARKOU", "village": "KARKOU", "canton": "TCHAMONGA", "commune": "OTI SUD 1", "prefecture": "OTI SUD", "region": "SAVANES", "latitude": 10.48327, "longitude": 0.7693367, "is_mappable": true }, "geometry": { "type": "Point", "coordinates": [ 0.7693367, 10.48327 ] } },
{ "type": "Feature", "properties": { "id": 861, "title": "Installation d'un forage photovoltaïque pour le maraichage", "type": "Forages photovoltaïques pour les activités maraîchères", "works_type": "Construction", "status": "Remise de l'ouvrage à la communauté 100.0%", "current_status_of_the_site": "Réception provisoire", "progress_percent": 100.0, "existence_of_maintenance_plan": true, "wave": "4", "population": 2168.0, "beneficiary_villages_count": 1, "direct_beneficiaries_men": 1025.0, "direct_beneficiaries_women": 1143.0, "work_completion_date": "2024-12-30T00:00:00", "official_handover_date_to_community": "2025-01-22T00:00:00", "location_name": "IBASSANDJA", "village": "IBASSANDJA", "canton": "TCHAMONGA", "commune": "OTI SUD 1", "prefecture": "OTI SUD", "region": "SAVANES", "latitude": 10.4859533, "longitude": 0.7485683, "is_mappable": true }, "geometry": { "type": "Point", "coordinates": [ 0.7485683, 10.4859533 ] } },
{ "type": "Feature", "properties": { "id": 866, "title": "1-Construction d'un bâtiment scolaire de 3 classes avec bureau et latrines  à l'EPP Nakpabak B (lieu-dit Sibiogue): sous projet porté par le CVD DE Sibiogue et soutenu par le CVD de Pokenyète", "type": "Forages photovoltaïques dans les établissements scolaires", "works_type": "Construction", "status": "Réception définitive 100.0%", "current_status_of_the_site": "Réception définitive", "progress_percent": 0.0, "existence_of_maintenance_plan": false, "wave": "4", "population": 600.0, "beneficiary_villages_count": 1, "direct_beneficiaries_men": 295.0, "direct_beneficiaries_women": 312.0, "work_completion_date": "2024-08-26T00:00:00", "official_handover_date_to_community": "2025-09-25T00:00:00", "location_name": "SIBIOGUE", "village": "SIBIOGUE", "canton": "TAMPIALIME", "commune": "TANDJOUARE 2", "prefecture": "TANDJOUARE", "region": "SAVANES", "latitude": 10.771387, "longitude": 0.091253, "is_mappable": true }, "geometry": { "type": "Point", "coordinates": [ 0.091253, 10.771387 ] } },
{ "type": "Feature", "properties": { "id": 870, "title": "construction et équipement d'un batiment scolaire de 4 classes avec bureau, latrines et forage au CEG Kpinkparbagou", "type": "Forages photovoltaïques dans les établissements scolaires", "works_type": "Construction", "status": "Réception définitive 100.0%", "current_status_of_the_site": "Réception définitive", "progress_percent": 0.0, "existence_of_maintenance_plan": true, "wave": "4", "population": 1191.0, "beneficiary_villages_count": 2, "direct_beneficiaries_men": 225.0, "direct_beneficiaries_women": 714.0, "work_completion_date": "2024-09-23T00:00:00", "official_handover_date_to_community": "2026-01-29T00:00:00", "location_name": "KPINKPARBAGOU 1", "village": "KPINKPARBAGOU 1", "canton": "TAMPIALIME", "commune": "TANDJOUARE 2", "prefecture": "TANDJOUARE", "region": "SAVANES", "latitude": 10.76495, "longitude": -0.035277, "is_mappable": true }, "geometry": { "type": "Point", "coordinates": [ -0.035277, 10.76495 ] } },
{ "type": "Feature", "properties": { "id": 875, "title": "Construction d'une forage photovoltaïque pour le marâichage et équipements maraîchers", "type": "Forages photovoltaïques pour les activités maraîchères", "works_type": "Construction", "status": "Réception provisoire 100.0%", "current_status_of_the_site": "Réception provisoire", "progress_percent": 0.0, "existence_of_maintenance_plan": false, "wave": "4", "population": 1300.0, "beneficiary_villages_count": 1, "direct_beneficiaries_men": 604.0, "direct_beneficiaries_women": 696.0, "work_completion_date": "2024-10-10T00:00:00", "official_handover_date_to_community": null, "location_name": "KOULMATIK-MIRE", "village": "KOULMATIK-MIRE", "canton": "TAMPIALIME", "commune": "TANDJOUARE 2", "prefecture": "TANDJOUARE", "region": "SAVANES", "latitude": 10.77684, "longitude": 0.052255, "is_mappable": true }, "geometry": { "type": "Point", "coordinates": [ 0.052255, 10.77684 ] } },
{ "type": "Feature", "properties": { "id": 876, "title": "Appui à la réalisation d'un forage photovoltaïque pour maraîchage", "type": "Forages photovoltaïques pour les activités maraîchères", "works_type": "Construction", "status": "Réception définitive 100.0%", "current_status_of_the_site": "Réception définitive", "progress_percent": 0.0, "existence_of_maintenance_plan": true, "wave": "4", "population": 259.0, "beneficiary_villages_count": 1, "direct_beneficiaries_men": 111.0, "direct_beneficiaries_women": 149.0, "work_completion_date": "2024-08-26T00:00:00", "official_handover_date_to_community": "2025-09-26T00:00:00", "location_name": "KPINKPARBAGOU 2", "village": "KPINKPARBAGOU 2", "canton": "TAMPIALIME", "commune": "TANDJOUARE 2", "prefecture": "TANDJOUARE", "region": "SAVANES", "latitude": 10.7588133, "longitude": -0.0154217, "is_mappable": true }, "geometry": { "type": "Point", "coordinates": [ -0.0154217, 10.7588133 ] } },
{ "type": "Feature", "properties": { "id": 877, "title": "Appui à la réalisation d'un forage photovoltaïque pour maraîchage", "type": "Forages photovoltaïques pour les activités maraîchères", "works_type": "Construction", "status": "Réception définitive 100.0%", "current_status_of_the_site": "Réception définitive", "progress_percent": 0.0, "existence_of_maintenance_plan": false, "wave": "4", "population": 926.0, "beneficiary_villages_count": 1, "direct_beneficiaries_men": 458.0, "direct_beneficiaries_women": 468.0, "work_completion_date": "2024-11-01T00:00:00", "official_handover_date_to_community": "2025-12-23T00:00:00", "location_name": "PIABRIBAGOU", "village": "PIABRIBAGOU", "canton": "TAMPIALIME", "commune": "TANDJOUARE 2", "prefecture": "TANDJOUARE", "region": "SAVANES", "latitude": 10.780718, "longitude": 0.127192, "is_mappable": true }, "geometry": { "type": "Point", "coordinates": [ 0.127192, 10.780718 ] } },
{ "type": "Feature", "properties": { "id": 878, "title": "Appui à la réalisation d'un forage photovoltaïque équipé d'un système de pompage pour maraîchage et l'abreuvement des animaux", "type": "Forages photovoltaïques pour les activités maraîchères", "works_type": "Construction", "status": "Réception définitive 100.0%", "current_status_of_the_site": "Réception définitive", "progress_percent": 0.0, "existence_of_maintenance_plan": true, "wave": "4", "population": 735.0, "beneficiary_villages_count": 2, "direct_beneficiaries_men": 352.0, "direct_beneficiaries_women": 382.0, "work_completion_date": "2024-08-26T00:00:00", "official_handover_date_to_community": "2025-09-25T00:00:00", "location_name": "NALONGUE 1", "village": "NALONGUE 1", "canton": "TAMPIALIME", "commune": "TANDJOUARE 2", "prefecture": "TANDJOUARE", "region": "SAVANES", "latitude": 10.7307983, "longitude": -0.0069233, "is_mappable": true }, "geometry": { "type": "Point", "coordinates": [ -0.0069233, 10.7307983 ] } },
{ "type": "Feature", "properties": { "id": 895, "title": "Contruction de Batiment scolaire de 3 classes équipées+ bureau+mangasin +forage à EPP Magna", "type": "Forages photovoltaïques dans les établissements scolaires", "works_type": "Construction", "status": "Réception provisoire 100.0%", "current_status_of_the_site": "Réception provisoire", "progress_percent": 0.0, "existence_of_maintenance_plan": false, "wave": "4", "population": 1338.0, "beneficiary_villages_count": 1, "direct_beneficiaries_men": 638.0, "direct_beneficiaries_women": 700.0, "work_completion_date": "2024-09-25T00:00:00", "official_handover_date_to_community": null, "location_name": "MAGNA", "village": "MAGNA", "canton": "MANGO", "commune": "OTI 1", "prefecture": "OTI", "region": "SAVANES", "latitude": 10.3384158, "longitude": 0.4571656, "is_mappable": true }, "geometry": { "type": "Point", "coordinates": [ 0.4571656, 10.3384158 ] } },
{ "type": "Feature", "properties": { "id": 897, "title": "Contruction de Batiment scolaire de 3 classes équipées+ bureau+mangasin +forage à EPP Fomboro", "type": "Forages photovoltaïques dans les établissements scolaires", "works_type": "Construction", "status": "Réception technique 100.0%", "current_status_of_the_site": "Réception provisoire", "progress_percent": 0.0, "existence_of_maintenance_plan": false, "wave": "4", "population": 3678.0, "beneficiary_villages_count": 1, "direct_beneficiaries_men": 1678.0, "direct_beneficiaries_women": 2000.0, "work_completion_date": "2024-10-02T00:00:00", "official_handover_date_to_community": null, "location_name": "FOMBORO", "village": "FOMBORO", "canton": "MANGO", "commune": "OTI 1", "prefecture": "OTI", "region": "SAVANES", "latitude": 10.3531358, "longitude": 0.4777628, "is_mappable": true }, "geometry": { "type": "Point", "coordinates": [ 0.4777628, 10.3531358 ] } },
{ "type": "Feature", "properties": { "id": 899, "title": "Contruction de Batiment scolaire de 3 classes équipées+ bureau+mangasin +forage à EPP DOUANE EST", "type": "Forages photovoltaïques dans les établissements scolaires", "works_type": "Construction", "status": "Réception provisoire 100.0%", "current_status_of_the_site": "Réception provisoire", "progress_percent": 0.0, "existence_of_maintenance_plan": false, "wave": "4", "population": 3221.0, "beneficiary_villages_count": 1, "direct_beneficiaries_men": 1907.0, "direct_beneficiaries_women": 1308.0, "work_completion_date": "2024-10-03T00:00:00", "official_handover_date_to_community": null, "location_name": "DOUANE-EST", "village": "DOUANE-EST", "canton": "MANGO", "commune": "OTI 1", "prefecture": "OTI", "region": "SAVANES", "latitude": 10.3392083, "longitude": 0.4729033, "is_mappable": true }, "geometry": { "type": "Point", "coordinates": [ 0.4729033, 10.3392083 ] } },
{ "type": "Feature", "properties": { "id": 903, "title": "Contruction de Batiment scolaire de 3 classes équipées+ bureau+mangasin +forage à EPP Bendenou", "type": "Forages photovoltaïques dans les établissements scolaires", "works_type": "Construction", "status": "Réception provisoire 100.0%", "current_status_of_the_site": "Réception provisoire", "progress_percent": 0.0, "existence_of_maintenance_plan": false, "wave": "4", "population": 2600.0, "beneficiary_villages_count": 1, "direct_beneficiaries_men": 1750.0, "direct_beneficiaries_women": 1850.0, "work_completion_date": "2024-11-12T00:00:00", "official_handover_date_to_community": null, "location_name": "DJABOU", "village": "DJABOU", "canton": "MANGO", "commune": "OTI 1", "prefecture": "OTI", "region": "SAVANES", "latitude": 10.3644199, "longitude": 0.4783607, "is_mappable": true }, "geometry": { "type": "Point", "coordinates": [ 0.4783607, 10.3644199 ] } },
{ "type": "Feature", "properties": { "id": 909, "title": "Construction de salle de réunion", "type": "Forage Photovoltaïque (Salle de réunion)", "works_type": "Construction", "status": "Réception technique 100.0%", "current_status_of_the_site": "Réception provisoire", "progress_percent": 0.0, "existence_of_maintenance_plan": false, "wave": "4", "population": 666.0, "beneficiary_villages_count": 1, "direct_beneficiaries_men": 365.0, "direct_beneficiaries_women": 325.0, "work_completion_date": "2025-01-17T00:00:00", "official_handover_date_to_community": null, "location_name": "GNANGBANDI (MANGO)", "village": "GNANGBANDI (MANGO)", "canton": "MANGO", "commune": "OTI 1", "prefecture": "OTI", "region": "SAVANES", "latitude": 10.32394, "longitude": 0.43644, "is_mappable": true }, "geometry": { "type": "Point", "coordinates": [ 0.43644, 10.32394 ] } },
{ "type": "Feature", "properties": { "id": 915, "title": "Construction d'un batiment scolaire de 3 salles de classe+ bureau+Forage+Bloc sanitaire à l'EPP Gnabadjoani 2", "type": "Forages photovoltaïques dans les établissements scolaires", "works_type": "Construction", "status": "Réception provisoire 100.0%", "current_status_of_the_site": "Réception provisoire", "progress_percent": 0.0, "existence_of_maintenance_plan": true, "wave": "4", "population": 1673.0, "beneficiary_villages_count": 3, "direct_beneficiaries_men": 825.0, "direct_beneficiaries_women": 848.0, "work_completion_date": "2024-10-22T00:00:00", "official_handover_date_to_community": null, "location_name": "GNABADJOUANI 2", "village": "GNABADJOUANI 2", "canton": "NAMARE", "commune": "TONE 2", "prefecture": "TONE", "region": "SAVANES", "latitude": 10.966555, "longitude": 0.13158, "is_mappable": true }, "geometry": { "type": "Point", "coordinates": [ 0.13158, 10.966555 ] } },
{ "type": "Feature", "properties": { "id": 927, "title": "Réalisation d'un forage maraicher dans le bas-fond de Yobre 1 ", "type": "Forages photovoltaïques pour les activités maraîchères", "works_type": "Construction", "status": "Réception définitive 100.0%", "current_status_of_the_site": "Réception définitive", "progress_percent": 0.0, "existence_of_maintenance_plan": true, "wave": "4", "population": 1497.0, "beneficiary_villages_count": 3, "direct_beneficiaries_men": 590.0, "direct_beneficiaries_women": 907.0, "work_completion_date": "2024-08-18T00:00:00", "official_handover_date_to_community": "2025-09-23T00:00:00", "location_name": "YOBRE 1", "village": "YOBRE 1", "canton": "NAMARE", "commune": "TONE 2", "prefecture": "TONE", "region": "SAVANES", "latitude": 10.938128, "longitude": 0.094391, "is_mappable": true }, "geometry": { "type": "Point", "coordinates": [ 0.094391, 10.938128 ] } },
{ "type": "Feature", "properties": { "id": 944, "title": "Réalisation d'un forage photovoltaique pour le maraichage", "type": "Forages photovoltaïques pour les activités maraîchères", "works_type": "Construction", "status": "Réception provisoire 100.0%", "current_status_of_the_site": "Réception provisoire", "progress_percent": 0.0, "existence_of_maintenance_plan": false, "wave": "4", "population": 133.0, "beneficiary_villages_count": 1, "direct_beneficiaries_men": 52.0, "direct_beneficiaries_women": 81.0, "work_completion_date": "2025-04-18T00:00:00", "official_handover_date_to_community": null, "location_name": "DJIRIDJO", "village": "DJIRIDJO", "canton": "TAKPAMBA", "commune": "OTI SUD 2", "prefecture": "OTI SUD", "region": "SAVANES", "latitude": 10.01441, "longitude": 0.5215, "is_mappable": true }, "geometry": { "type": "Point", "coordinates": [ 0.5215, 10.01441 ] } },
{ "type": "Feature", "properties": { "id": 948, "title": "Réalisation du forage photovoltaique pour le maraichage", "type": "Forages photovoltaïques pour les activités maraîchères", "works_type": "Construction", "status": "Réception provisoire 100.0%", "current_status_of_the_site": "Réception provisoire", "progress_percent": 0.0, "existence_of_maintenance_plan": false, "wave": "4", "population": 235.0, "beneficiary_villages_count": 1, "direct_beneficiaries_men": 112.0, "direct_beneficiaries_women": 123.0, "work_completion_date": "2024-10-03T00:00:00", "official_handover_date_to_community": null, "location_name": "SAPOLI", "village": "SAPOLI", "canton": "TAKPAMBA", "commune": "OTI SUD 2", "prefecture": "OTI SUD", "region": "SAVANES", "latitude": 9.844028, "longitude": 0.704147, "is_mappable": true }, "geometry": { "type": "Point", "coordinates": [ 0.704147, 9.844028 ] } },
{ "type": "Feature", "properties": { "id": 949, "title": "Réalisation du forage photovoltaique pour le maraichage", "type": "Forages photovoltaïques pour les activités maraîchères", "works_type": "Construction", "status": "Réception définitive 100.0%", "current_status_of_the_site": "Réception définitive", "progress_percent": 0.0, "existence_of_maintenance_plan": false, "wave": "4", "population": 582.0, "beneficiary_villages_count": 1, "direct_beneficiaries_men": 248.0, "direct_beneficiaries_women": 303.0, "work_completion_date": "2024-09-04T00:00:00", "official_handover_date_to_community": "2025-10-07T00:00:00", "location_name": "LENIDO", "village": "LENIDO", "canton": "TAKPAMBA", "commune": "OTI SUD 2", "prefecture": "OTI SUD", "region": "SAVANES", "latitude": 9.946635, "longitude": 0.5972867, "is_mappable": true }, "geometry": { "type": "Point", "coordinates": [ 0.5972867, 9.946635 ] } },
{ "type": "Feature", "properties": { "id": 975, "title": "Réalisation d'un forage photovoltaïque pour maraîchage", "type": "Forages photovoltaïques pour les activités maraîchères", "works_type": "Construction", "status": "Achevé 100.0%", "current_status_of_the_site": "Achevé", "progress_percent": 100.0, "existence_of_maintenance_plan": false, "wave": "5", "population": 1001.0, "beneficiary_villages_count": 2, "direct_beneficiaries_men": 411.0, "direct_beneficiaries_women": 590.0, "work_completion_date": "2026-05-29T00:00:00", "official_handover_date_to_community": null, "location_name": "SAMBROUGUE", "village": "SAMBROUGUE", "canton": "TAMI", "commune": "TONE 3", "prefecture": "TONE", "region": "SAVANES", "latitude": 10.9115583, "longitude": -0.005415, "is_mappable": true }, "geometry": { "type": "Point", "coordinates": [ -0.005415, 10.9115583 ] } },
{ "type": "Feature", "properties": { "id": 976, "title": "Réalisation de forage photovoltaïque pour le  JEP de Nakpanag", "type": "Forages photovoltaïques dans les établissements scolaires", "works_type": "Construction", "status": "Réception provisoire 100.0%", "current_status_of_the_site": "Réception provisoire", "progress_percent": 0.0, "existence_of_maintenance_plan": false, "wave": "5", "population": 469.0, "beneficiary_villages_count": 1, "direct_beneficiaries_men": 65.0, "direct_beneficiaries_women": 107.0, "work_completion_date": "2026-02-15T00:00:00", "official_handover_date_to_community": null, "location_name": "POAMONGUE", "village": "POAMONGUE", "canton": "TAMI", "commune": "TONE 3", "prefecture": "TONE", "region": "SAVANES", "latitude": 10.853297, "longitude": 0.063415, "is_mappable": true }, "geometry": { "type": "Point", "coordinates": [ 0.063415, 10.853297 ] } },
{ "type": "Feature", "properties": { "id": 1004, "title": "Construction et équipement d'un centre communautaire ", "type": "Forage Photovoltaïque (Centre communautaire)", "works_type": "Construction", "status": "Réception provisoire 100.0%", "current_status_of_the_site": "Réception provisoire", "progress_percent": 0.0, "existence_of_maintenance_plan": false, "wave": "5", "population": 3722.0, "beneficiary_villages_count": 1, "direct_beneficiaries_men": 1637.0, "direct_beneficiaries_women": 2085.0, "work_completion_date": "2025-04-01T00:00:00", "official_handover_date_to_community": null, "location_name": "LOTOGOU CENTRE", "village": "LOTOGOU CENTRE", "canton": "LOTOGOU", "commune": "TONE 3", "prefecture": "TONE", "region": "SAVANES", "latitude": 10.798171, "longitude": 0.025296, "is_mappable": true }, "geometry": { "type": "Point", "coordinates": [ 0.025296, 10.798171 ] } },
{ "type": "Feature", "properties": { "id": 1050, "title": "Réalisation  d'un forage photovoltaique pour le maraichage ", "type": "Forages photovoltaïques pour les activités maraîchères", "works_type": "Construction", "status": "Achevé 100.0%", "current_status_of_the_site": "Achevé", "progress_percent": 0.0, "existence_of_maintenance_plan": false, "wave": "6", "population": 161.0, "beneficiary_villages_count": 1, "direct_beneficiaries_men": 76.0, "direct_beneficiaries_women": 115.0, "work_completion_date": "2026-03-17T00:00:00", "official_handover_date_to_community": null, "location_name": "MAGNA BAS", "village": "MAGNA BAS", "canton": "DOUKPERGOU", "commune": "TANDJOUARE 2", "prefecture": "TANDJOUARE", "region": "SAVANES", "latitude": 10.6417033, "longitude": 0.0908567, "is_mappable": true }, "geometry": { "type": "Point", "coordinates": [ 0.0908567, 10.6417033 ] } },
{ "type": "Feature", "properties": { "id": 1065, "title": "Réalissation d'un forage photovoltaïque maraicher", "type": "Forages photovoltaïques pour les activités maraîchères", "works_type": "Construction", "status": "Réception provisoire 100.0%", "current_status_of_the_site": "Réception provisoire", "progress_percent": 100.0, "existence_of_maintenance_plan": false, "wave": "6", "population": 976.0, "beneficiary_villages_count": 2, "direct_beneficiaries_men": 465.0, "direct_beneficiaries_women": 514.0, "work_completion_date": "2025-09-21T00:00:00", "official_handover_date_to_community": null, "location_name": "KPATCHIANGBANE 1", "village": "KPATCHIANGBANE 1", "canton": "NAKI-OUEST", "commune": "TONE 2", "prefecture": "TONE", "region": "SAVANES", "latitude": 10.9534483, "longitude": -0.0034733, "is_mappable": true }, "geometry": { "type": "Point", "coordinates": [ -0.0034733, 10.9534483 ] } },
{ "type": "Feature", "properties": { "id": 1067, "title": "Réalissation d'un forage photovoltaïque maraicher", "type": "Forages photovoltaïques pour les activités maraîchères", "works_type": "Construction", "status": "Réception provisoire 100.0%", "current_status_of_the_site": "Réception provisoire", "progress_percent": 0.0, "existence_of_maintenance_plan": false, "wave": "6", "population": 1106.0, "beneficiary_villages_count": 1, "direct_beneficiaries_men": 550.0, "direct_beneficiaries_women": 556.0, "work_completion_date": "2025-09-21T00:00:00", "official_handover_date_to_community": null, "location_name": "BASSOUDOUGOU", "village": "BASSOUDOUGOU", "canton": "NAKI-OUEST", "commune": "TONE 2", "prefecture": "TONE", "region": "SAVANES", "latitude": 10.9422383, "longitude": 0.0246017, "is_mappable": true }, "geometry": { "type": "Point", "coordinates": [ 0.0246017, 10.9422383 ] } },
{ "type": "Feature", "properties": { "id": 1070, "title": "Réalissation d'un forage photovoltaïque maraicher", "type": "Forages photovoltaïques pour les activités maraîchères", "works_type": "Construction", "status": "Réception provisoire 100.0%", "current_status_of_the_site": "Réception provisoire", "progress_percent": 0.0, "existence_of_maintenance_plan": false, "wave": "6", "population": 894.0, "beneficiary_villages_count": 2, "direct_beneficiaries_men": 313.0, "direct_beneficiaries_women": 581.0, "work_completion_date": "2025-09-21T00:00:00", "official_handover_date_to_community": null, "location_name": "NAKORGOU", "village": "NAKORGOU", "canton": "NAKI-OUEST", "commune": "TONE 2", "prefecture": "TONE", "region": "SAVANES", "latitude": 10.933573, "longitude": 0.068247, "is_mappable": true }, "geometry": { "type": "Point", "coordinates": [ 0.068247, 10.933573 ] } },
{ "type": "Feature", "properties": { "id": 1071, "title": "Réalissation d'un forage photovoltaïque maraicher", "type": "Forages photovoltaïques pour les activités maraîchères", "works_type": "Construction", "status": "Réception provisoire 100.0%", "current_status_of_the_site": "Réception provisoire", "progress_percent": 0.0, "existence_of_maintenance_plan": false, "wave": "6", "population": 1312.0, "beneficiary_villages_count": 3, "direct_beneficiaries_men": 630.0, "direct_beneficiaries_women": 682.0, "work_completion_date": "2025-12-16T00:00:00", "official_handover_date_to_community": null, "location_name": "KARIATA", "village": "KARIATA", "canton": "NAKI-OUEST", "commune": "TONE 2", "prefecture": "TONE", "region": "SAVANES", "latitude": 10.893852, "longitude": 0.061661, "is_mappable": true }, "geometry": { "type": "Point", "coordinates": [ 0.061661, 10.893852 ] } },
{ "type": "Feature", "properties": { "id": 1073, "title": "Réalissation d'un forage photovoltaïque maraicher", "type": "Forages photovoltaïques pour les activités maraîchères", "works_type": "Construction", "status": "Réception provisoire 100.0%", "current_status_of_the_site": "Réception provisoire", "progress_percent": 0.0, "existence_of_maintenance_plan": false, "wave": "6", "population": 1096.0, "beneficiary_villages_count": 2, "direct_beneficiaries_men": 530.0, "direct_beneficiaries_women": 566.0, "work_completion_date": "2025-09-15T00:00:00", "official_handover_date_to_community": null, "location_name": "TCHANDANA", "village": "TCHANDANA", "canton": "NAKI-OUEST", "commune": "TONE 2", "prefecture": "TONE", "region": "SAVANES", "latitude": 10.934593, "longitude": 0.11905, "is_mappable": true }, "geometry": { "type": "Point", "coordinates": [ 0.11905, 10.934593 ] } },
{ "type": "Feature", "properties": { "id": 1076, "title": "Construction d'un batiment scolaire de trois classes,bureau,magasin  + forage ", "type": "Forages photovoltaïques dans les établissements scolaires", "works_type": "Construction", "status": "Réception provisoire 100.0%", "current_status_of_the_site": "Réception provisoire", "progress_percent": 0.0, "existence_of_maintenance_plan": false, "wave": "6", "population": 1749.0, "beneficiary_villages_count": 1, "direct_beneficiaries_men": 738.0, "direct_beneficiaries_women": 911.0, "work_completion_date": "2025-07-11T00:00:00", "official_handover_date_to_community": null, "location_name": "KEREKETE", "village": "KEREKETE", "canton": "GALANGASHIE", "commune": "OTI 2", "prefecture": "OTI", "region": "SAVANES", "latitude": 10.4833243, "longitude": 0.2093732, "is_mappable": true }, "geometry": { "type": "Point", "coordinates": [ 0.2093732, 10.4833243 ] } },
{ "type": "Feature", "properties": { "id": 1087, "title": "construcion d'un centre communautaire", "type": "Forage Photovoltaïque (Centre communautaire)", "works_type": "Construction", "status": "Réception provisoire 100.0%", "current_status_of_the_site": "Réception provisoire", "progress_percent": 0.0, "existence_of_maintenance_plan": false, "wave": "6", "population": 519.0, "beneficiary_villages_count": 1, "direct_beneficiaries_men": 219.0, "direct_beneficiaries_women": 300.0, "work_completion_date": "2025-09-08T00:00:00", "official_handover_date_to_community": null, "location_name": "KPANDJINI", "village": "KPANDJINI", "canton": "GALANGASHIE", "commune": "OTI 2", "prefecture": "OTI", "region": "SAVANES", "latitude": 10.5348583, "longitude": 0.32996, "is_mappable": true }, "geometry": { "type": "Point", "coordinates": [ 0.32996, 10.5348583 ] } },
{ "type": "Feature", "properties": { "id": 1112, "title": "Construction et équipement d'un batiment scolaire + forage pour le jardin d'enfants JEP de Djé-Djabou", "type": "Forages photovoltaïques dans les établissements scolaires", "works_type": "Construction", "status": "Réception définitive 100.0%", "current_status_of_the_site": "Réception définitive", "progress_percent": 0.0, "existence_of_maintenance_plan": true, "wave": "6", "population": 1987.0, "beneficiary_villages_count": 1, "direct_beneficiaries_men": 594.0, "direct_beneficiaries_women": 763.0, "work_completion_date": "2025-01-28T00:00:00", "official_handover_date_to_community": "2026-03-18T00:00:00", "location_name": "DJE-DJABOU", "village": "DJE-DJABOU", "canton": "GANDO", "commune": "OTI SUD 1", "prefecture": "OTI SUD", "region": "SAVANES", "latitude": 10.3179254, "longitude": 0.7220782, "is_mappable": true }, "geometry": { "type": "Point", "coordinates": [ 0.7220782, 10.3179254 ] } },
{ "type": "Feature", "properties": { "id": 1116, "title": "Réalisation d'un forage photovoltaique pour le maraichage et abreuvement des animaux", "type": "Forages photovoltaïques pour les activités maraîchères", "works_type": "Construction", "status": "Réception provisoire 100.0%", "current_status_of_the_site": "Réception provisoire", "progress_percent": 100.0, "existence_of_maintenance_plan": false, "wave": "6", "population": 564.0, "beneficiary_villages_count": 1, "direct_beneficiaries_men": 257.0, "direct_beneficiaries_women": 307.0, "work_completion_date": "2025-08-28T00:00:00", "official_handover_date_to_community": null, "location_name": "GBATENI", "village": "GBATENI", "canton": "GANDO", "commune": "OTI SUD 1", "prefecture": "OTI SUD", "region": "SAVANES", "latitude": 10.2540124, "longitude": 0.7433078, "is_mappable": true }, "geometry": { "type": "Point", "coordinates": [ 0.7433078, 10.2540124 ] } },
{ "type": "Feature", "properties": { "id": 1117, "title": "Réalisation d'un forage photovoltaique pour le maraichage", "type": "Forages photovoltaïques pour les activités maraîchères", "works_type": "Construction", "status": "Réception provisoire 100.0%", "current_status_of_the_site": "Réception provisoire", "progress_percent": 100.0, "existence_of_maintenance_plan": false, "wave": "6", "population": 450.0, "beneficiary_villages_count": 1, "direct_beneficiaries_men": 210.0, "direct_beneficiaries_women": 240.0, "work_completion_date": "2026-04-01T00:00:00", "official_handover_date_to_community": null, "location_name": "NAKPATI", "village": "NAKPATI", "canton": "GANDO", "commune": "OTI SUD 1", "prefecture": "OTI SUD", "region": "SAVANES", "latitude": 10.3497677, "longitude": 0.8183641, "is_mappable": true }, "geometry": { "type": "Point", "coordinates": [ 0.8183641, 10.3497677 ] } },
{ "type": "Feature", "properties": { "id": 1423, "title": "Réhabilitation du Marché de NAMARE", "type": "Forages photovoltaïques dans les marchés pour eau de boisson", "works_type": "Construction", "status": "Achevé 100.0%", "current_status_of_the_site": "Achevé", "progress_percent": null, "existence_of_maintenance_plan": false, "wave": null, "population": null, "beneficiary_villages_count": 40, "direct_beneficiaries_men": null, "direct_beneficiaries_women": null, "work_completion_date": "2025-12-31T00:00:00", "official_handover_date_to_community": null, "location_name": "TCHANKOUNKOUNKONG", "village": "TCHANKOUNKOUNKONG", "canton": "NAMARE", "commune": "TONE 2", "prefecture": "TONE", "region": "SAVANES", "latitude": 10.936937, "longitude": 0.146811, "is_mappable": true }, "geometry": { "type": "Point", "coordinates": [ 0.146811, 10.936937 ] } },
{ "type": "Feature", "properties": { "id": 1443, "title": "Réhabilitation du Marché de TAMI", "type": "Forages photovoltaïques dans les marchés pour eau de boisson", "works_type": "Construction", "status": "En cours", "current_status_of_the_site": "Achevé", "progress_percent": null, "existence_of_maintenance_plan": false, "wave": null, "population": null, "beneficiary_villages_count": 46, "direct_beneficiaries_men": null, "direct_beneficiaries_women": null, "work_completion_date": "2025-06-28T00:00:00", "official_handover_date_to_community": null, "location_name": "TAMI-CENTRE", "village": "TAMI-CENTRE", "canton": "TAMI", "commune": "TONE 3", "prefecture": "TONE", "region": "SAVANES", "latitude": 10.858083, "longitude": 0.040576, "is_mappable": true }, "geometry": { "type": "Point", "coordinates": [ 0.040576, 10.858083 ] } },
{ "type": "Feature", "properties": { "id": 1452, "title": "Réhabilitation du Marché de WARKAMBOU", "type": "Forages photovoltaïques dans les marchés pour eau de boisson", "works_type": "Construction", "status": "Achevé 100.0%", "current_status_of_the_site": "Achevé", "progress_percent": null, "existence_of_maintenance_plan": false, "wave": null, "population": null, "beneficiary_villages_count": 29, "direct_beneficiaries_men": null, "direct_beneficiaries_women": null, "work_completion_date": "2025-12-31T00:00:00", "official_handover_date_to_community": null, "location_name": "WARKAMBOU CENTRE 1", "village": "WARKAMBOU CENTRE 1", "canton": "WARKAMBOU", "commune": "TONE 3", "prefecture": "TONE", "region": "SAVANES", "latitude": 10.804232, "longitude": -0.013278, "is_mappable": true }, "geometry": { "type": "Point", "coordinates": [ -0.013278, 10.804232 ] } },
{ "type": "Feature", "properties": { "id": 1506, "title": "Réalisation d'un forage photovoltaïque pour le maraîchage", "type": "Forages photovoltaïques pour les activités maraîchères", "works_type": "Construction", "status": "Réception provisoire 100.0%", "current_status_of_the_site": "Réception provisoire", "progress_percent": 100.0, "existence_of_maintenance_plan": false, "wave": null, "population": 2891.0, "beneficiary_villages_count": 1, "direct_beneficiaries_men": 1170.0, "direct_beneficiaries_women": 1721.0, "work_completion_date": "2026-04-22T00:00:00", "official_handover_date_to_community": null, "location_name": "TAMBATE", "village": "TAMBATE", "canton": "KOUNDJOARE", "commune": "KPENDJAL 1", "prefecture": "KPENDJAL", "region": "SAVANES", "latitude": 10.935298, "longitude": 0.64414, "is_mappable": true }, "geometry": { "type": "Point", "coordinates": [ 0.64414, 10.935298 ] } },
{ "type": "Feature", "properties": { "id": 1512, "title": "Réalisation d'une forage photovoltaïque pour eau de boisson en communauté", "type": "Forages photovoltaïques dans les communautés pour eau de boisson", "works_type": "Construction", "status": "Achevé 100.0%", "current_status_of_the_site": "Achevé", "progress_percent": 100.0, "existence_of_maintenance_plan": false, "wave": "2", "population": 1382.0, "beneficiary_villages_count": 1, "direct_beneficiaries_men": 649.0, "direct_beneficiaries_women": 733.0, "work_completion_date": "2026-02-15T00:00:00", "official_handover_date_to_community": null, "location_name": "SANLOAGA", "village": "SANLOAGA", "canton": "KOUNDJOARE", "commune": "KPENDJAL 1", "prefecture": "KPENDJAL", "region": "SAVANES", "latitude": 10.968935, "longitude": 0.786435, "is_mappable": true }, "geometry": { "type": "Point", "coordinates": [ 0.786435, 10.968935 ] } },
{ "type": "Feature", "properties": { "id": 1519, "title": "Installation de 10 lampadaires Solaires ", "type": "Forages photovoltaïques dans les communautés pour eau de boisson", "works_type": "Construction", "status": "Réception provisoire 100.0%", "current_status_of_the_site": "Réception provisoire", "progress_percent": null, "existence_of_maintenance_plan": false, "wave": "6", "population": 191.0, "beneficiary_villages_count": 1, "direct_beneficiaries_men": 114.0, "direct_beneficiaries_women": 77.0, "work_completion_date": "2026-02-02T00:00:00", "official_handover_date_to_community": null, "location_name": "PATKONE TOMONG", "village": "PATKONE TOMONG", "canton": "DOUKPERGOU", "commune": "TANDJOUARE 2", "prefecture": "TANDJOUARE", "region": "SAVANES", "latitude": 10.6047967, "longitude": 0.0393583, "is_mappable": true }, "geometry": { "type": "Point", "coordinates": [ 0.0393583, 10.6047967 ] } },
{ "type": "Feature", "properties": { "id": 1525, "title": "Construction d'un bâtiment scolaire de trois classes avec bureau et magasin plus un bloc de latrines à l'EPP Natchare AVEC FORAGE", "type": "Forages photovoltaïques dans les communautés pour eau de boisson", "works_type": "Construction", "status": "Réception provisoire 100.0%", "current_status_of_the_site": "Réception provisoire", "progress_percent": null, "existence_of_maintenance_plan": false, "wave": "5", "population": 510.0, "beneficiary_villages_count": 2, "direct_beneficiaries_men": 257.0, "direct_beneficiaries_women": 283.0, "work_completion_date": "2025-12-11T00:00:00", "official_handover_date_to_community": null, "location_name": "NATCHARE", "village": "NATCHARE", "canton": "TAMI", "commune": "TONE 3", "prefecture": "TONE", "region": "SAVANES", "latitude": 10.8657, "longitude": 0.031187, "is_mappable": true }, "geometry": { "type": "Point", "coordinates": [ 0.031187, 10.8657 ] } },
{ "type": "Feature", "properties": { "id": 1538, "title": "Réalisation d'un forage photovotaïque pour eau de boisson dans le marché de Kaboli", "type": "Forages photovoltaïques dans les marchés pour eau de boisson", "works_type": "Construction", "status": "Réception provisoire 100.0%", "current_status_of_the_site": "Réception provisoire", "progress_percent": null, "existence_of_maintenance_plan": false, "wave": null, "population": null, "beneficiary_villages_count": 12, "direct_beneficiaries_men": null, "direct_beneficiaries_women": null, "work_completion_date": "2026-03-13T00:00:00", "official_handover_date_to_community": null, "location_name": "KABOLI", "village": null, "canton": "KABOLI", "commune": "TCHAMBA 3", "prefecture": "TCHAMBA", "region": "CENTRALE", "latitude": 8.746372, "longitude": 1.575045, "is_mappable": true }, "geometry": { "type": "Point", "coordinates": [ 1.575045, 8.746372 ] } },
{ "type": "Feature", "properties": { "id": 1571, "title": "Réalisation d'un forage photovoltaique AEP", "type": "Forages photovoltaïques dans les communautés pour eau de boisson", "works_type": "Construction", "status": "Remise de l'ouvrage à la communauté 100.0%", "current_status_of_the_site": "Réception provisoire", "progress_percent": 100.0, "existence_of_maintenance_plan": false, "wave": "118_2025", "population": 409.0, "beneficiary_villages_count": 1, "direct_beneficiaries_men": 172.0, "direct_beneficiaries_women": 257.0, "work_completion_date": "2026-04-02T00:00:00", "official_handover_date_to_community": "2026-04-02T00:00:00", "location_name": "ZOLALE", "village": "ZOLALE", "canton": "CINKASSE", "commune": "CINKASSE 1", "prefecture": "CINKASSE", "region": "SAVANES", "latitude": 11.093908, "longitude": 0.029553, "is_mappable": true }, "geometry": { "type": "Point", "coordinates": [ 0.029553, 11.093908 ] } },
{ "type": "Feature", "properties": { "id": 1687, "title": "Réalisation d'un forage photo voltaïque pour eau de boisson, dans le quartier des réfugiés (Pigniéka)", "type": "Forages photovoltaïques dans les communautés pour eau de boisson", "works_type": "Construction", "status": "Réception technique 100.0%", "current_status_of_the_site": "Réception technique", "progress_percent": 100.0, "existence_of_maintenance_plan": false, "wave": "118_2025", "population": 3050.0, "beneficiary_villages_count": 1, "direct_beneficiaries_men": 1042.0, "direct_beneficiaries_women": 2282.0, "work_completion_date": "2026-05-15T00:00:00", "official_handover_date_to_community": null, "location_name": "NASSIKOU", "village": "NASSIKOU", "canton": "SAGBIEBOU", "commune": "OTI SUD 1", "prefecture": "OTI SUD", "region": "SAVANES", "latitude": 10.165172, "longitude": 0.729873, "is_mappable": true }, "geometry": { "type": "Point", "coordinates": [ 0.729873, 10.165172 ] } },
{ "type": "Feature", "properties": { "id": 1692, "title": "Réalisation d'un forage photovoltaique pour eau de boisson", "type": "Forages photovoltaïques dans les communautés pour eau de boisson", "works_type": "Construction", "status": "Réception technique 100.0%", "current_status_of_the_site": "Réception technique", "progress_percent": 100.0, "existence_of_maintenance_plan": false, "wave": "118_2025", "population": 599.0, "beneficiary_villages_count": 1, "direct_beneficiaries_men": 235.0, "direct_beneficiaries_women": 364.0, "work_completion_date": "2026-05-14T00:00:00", "official_handover_date_to_community": null, "location_name": "TIEPAH", "village": "TIEPAH", "canton": "SAGBIEBOU", "commune": "OTI SUD 1", "prefecture": "OTI SUD", "region": "SAVANES", "latitude": 10.178085, "longitude": 0.612965, "is_mappable": true }, "geometry": { "type": "Point", "coordinates": [ 0.612965, 10.178085 ] } },
{ "type": "Feature", "properties": { "id": 1826, "title": "Construction d'un bâtiment  du JEP de deux classes plus clôture sans forage", "type": "Forages photovoltaïques dans les établissements scolaires", "works_type": "Construction", "status": "Réception technique 100.0%", "current_status_of_the_site": "Achevé", "progress_percent": null, "existence_of_maintenance_plan": false, "wave": "118_2025", "population": null, "beneficiary_villages_count": 1, "direct_beneficiaries_men": null, "direct_beneficiaries_women": null, "work_completion_date": "2026-03-24T00:00:00", "official_handover_date_to_community": null, "location_name": "BAOULE", "village": "BAOULE", "canton": "SAGBIEBOU", "commune": "OTI SUD 1", "prefecture": "OTI SUD", "region": "SAVANES", "latitude": 10.263224, "longitude": 0.578949, "is_mappable": true }, "geometry": { "type": "Point", "coordinates": [ 0.578949, 10.263224 ] } }
]
}
