{
"type": "FeatureCollection",
"name": "gdf_chateaux_deau_forages_tde",
"crs": { "type": "name", "properties": { "name": "urn:ogc:def:crs:OGC:1.3:CRS84" } },
"features": [
{ "type": "Feature", "properties": { "FID": "_mview_eau_forages_chateau_eau.fid-7b1c8a4a_193de71e9d0_7345", "nom_ouvrage": "Forage", "source": "TDE", "type_source": "TdE", "region": "Maritime", "prefecture": "Agoè-Nyivé", "commune": "Agoè-Nyivé 1", "canton": "Agoè-Nyivé" }, "geometry": { "type": "Point", "coordinates": [ 1.200791666666667, 6.206308333333332 ] } },
{ "type": "Feature", "properties": { "FID": "_mview_eau_forages_chateau_eau.fid-7b1c8a4a_193de71e9d0_7346", "nom_ouvrage": "Forage", "source": "TDE", "type_source": "TdE", "region": "Maritime", "prefecture": "Agoè-Nyivé", "commune": "Agoè-Nyivé 1", "canton": "Agoè-Nyivé" }, "geometry": { "type": "Point", "coordinates": [ 1.201506666666666, 6.20825 ] } },
{ "type": "Feature", "properties": { "FID": "_mview_eau_forages_chateau_eau.fid-7b1c8a4a_193de71e9d0_7347", "nom_ouvrage": "Forage", "source": "TDE", "type_source": "TdE", "region": "Maritime", "prefecture": "Agoè-Nyivé", "commune": "Agoè-Nyivé 1", "canton": "Agoè-Nyivé" }, "geometry": { "type": "Point", "coordinates": [ 1.20243, 6.208016666666667 ] } },
{ "type": "Feature", "properties": { "FID": "_mview_eau_forages_chateau_eau.fid-7b1c8a4a_193de71e9d0_7348", "nom_ouvrage": "Forage", "source": "TDE", "type_source": "TdE", "region": "Maritime", "prefecture": "Agoè-Nyivé", "commune": "Agoè-Nyivé 1", "canton": "Agoè-Nyivé" }, "geometry": { "type": "Point", "coordinates": [ 1.20366648982033, 6.207501047411497 ] } },
{ "type": "Feature", "properties": { "FID": "_mview_eau_forages_chateau_eau.fid-7b1c8a4a_193de71e9d0_7349", "nom_ouvrage": "Forage", "source": "TDE", "type_source": "TdE", "region": "Maritime", "prefecture": "Agoè-Nyivé", "commune": "Agoè-Nyivé 1", "canton": "Agoè-Nyivé" }, "geometry": { "type": "Point", "coordinates": [ 1.201426666666667, 6.208295 ] } },
{ "type": "Feature", "properties": { "FID": "_mview_eau_forages_chateau_eau.fid-7b1c8a4a_193de71e9d0_734a", "nom_ouvrage": "Forage", "source": "TDE", "type_source": "TdE", "region": "Maritime", "prefecture": "Agoè-Nyivé", "commune": "Agoè-Nyivé 1", "canton": "Agoè-Nyivé" }, "geometry": { "type": "Point", "coordinates": [ 1.205403333333333, 6.20774 ] } },
{ "type": "Feature", "properties": { "FID": "_mview_eau_forages_chateau_eau.fid-7b1c8a4a_193de71e9d0_734b", "nom_ouvrage": "Forage", "source": "TDE", "type_source": "TdE", "region": "Maritime", "prefecture": "Agoè-Nyivé", "commune": "Agoè-Nyivé 1", "canton": "Agoè-Nyivé" }, "geometry": { "type": "Point", "coordinates": [ 1.201645, 6.207003333333335 ] } },
{ "type": "Feature", "properties": { "FID": "_mview_eau_forages_chateau_eau.fid-7b1c8a4a_193de71e9d0_734c", "nom_ouvrage": "Forage", "source": "TDE", "type_source": "TdE", "region": "Maritime", "prefecture": "Agoè-Nyivé", "commune": "Agoè-Nyivé 1", "canton": "Agoè-Nyivé" }, "geometry": { "type": "Point", "coordinates": [ 1.20204, 6.207326666666667 ] } },
{ "type": "Feature", "properties": { "FID": "_mview_eau_forages_chateau_eau.fid-7b1c8a4a_193de71e9d0_734d", "nom_ouvrage": "Forage", "source": "TDE", "type_source": "TdE", "region": "Maritime", "prefecture": "Agoè-Nyivé", "commune": "Agoè-Nyivé 1", "canton": "Agoè-Nyivé" }, "geometry": { "type": "Point", "coordinates": [ 1.201225, 6.20672 ] } },
{ "type": "Feature", "properties": { "FID": "_mview_eau_forages_chateau_eau.fid-7b1c8a4a_193de71e9d0_734e", "nom_ouvrage": "Forage", "source": "TDE", "type_source": "TdE", "region": "Maritime", "prefecture": "Agoè-Nyivé", "commune": "Agoè-Nyivé 1", "canton": "Agoè-Nyivé" }, "geometry": { "type": "Point", "coordinates": [ 1.18421, 6.21621 ] } },
{ "type": "Feature", "properties": { "FID": "_mview_eau_forages_chateau_eau.fid-7b1c8a4a_193de71e9d0_734f", "nom_ouvrage": "Forage", "source": "TDE", "type_source": "TdE", "region": "Maritime", "prefecture": "Agoè-Nyivé", "commune": "Agoè-Nyivé 1", "canton": "Agoè-Nyivé" }, "geometry": { "type": "Point", "coordinates": [ 1.189786666666667, 6.210908333333333 ] } },
{ "type": "Feature", "properties": { "FID": "_mview_eau_forages_chateau_eau.fid-7b1c8a4a_193de71e9d0_7350", "nom_ouvrage": "Forage", "source": "TDE", "type_source": "TdE", "region": "Maritime", "prefecture": "Agoè-Nyivé", "commune": "Agoè-Nyivé 1", "canton": "Agoè-Nyivé" }, "geometry": { "type": "Point", "coordinates": [ 1.218611666666667, 6.240578333333334 ] } },
{ "type": "Feature", "properties": { "FID": "_mview_eau_forages_chateau_eau.fid-7b1c8a4a_193de71e9d0_7351", "nom_ouvrage": "Forage", "source": "TDE", "type_source": "TdE", "region": "Maritime", "prefecture": "Agoè-Nyivé", "commune": "Agoè-Nyivé 1", "canton": "Agoè-Nyivé" }, "geometry": { "type": "Point", "coordinates": [ 1.182713333333333, 6.21202 ] } },
{ "type": "Feature", "properties": { "FID": "_mview_eau_forages_chateau_eau.fid-7b1c8a4a_193de71e9d0_7352", "nom_ouvrage": "Forage", "source": "TDE", "type_source": "TdE", "region": "Maritime", "prefecture": "Agoè-Nyivé", "commune": "Agoè-Nyivé 1", "canton": "Agoè-Nyivé" }, "geometry": { "type": "Point", "coordinates": [ 1.18268, 6.211938333333333 ] } },
{ "type": "Feature", "properties": { "FID": "_mview_eau_forages_chateau_eau.fid-7b1c8a4a_193de71e9d0_7353", "nom_ouvrage": "Forage", "source": "TDE", "type_source": "TdE", "region": "Maritime", "prefecture": "Agoè-Nyivé", "commune": "Agoè-Nyivé 1", "canton": "Agoè-Nyivé" }, "geometry": { "type": "Point", "coordinates": [ 1.17653, 6.2215 ] } },
{ "type": "Feature", "properties": { "FID": "_mview_eau_forages_chateau_eau.fid-7b1c8a4a_193de71e9d0_7354", "nom_ouvrage": "Forage", "source": "TDE", "type_source": "TdE", "region": "Maritime", "prefecture": "Agoè-Nyivé", "commune": "Agoè-Nyivé 1", "canton": "Agoè-Nyivé" }, "geometry": { "type": "Point", "coordinates": [ 1.2103, 6.243005 ] } },
{ "type": "Feature", "properties": { "FID": "_mview_eau_forages_chateau_eau.fid-7b1c8a4a_193de71e9d0_7355", "nom_ouvrage": "Forage", "source": "TDE", "type_source": "TdE", "region": "Maritime", "prefecture": "Agoè-Nyivé", "commune": "Agoè-Nyivé 1", "canton": "Agoè-Nyivé" }, "geometry": { "type": "Point", "coordinates": [ 1.223111666666666, 6.22818 ] } },
{ "type": "Feature", "properties": { "FID": "_mview_eau_forages_chateau_eau.fid-7b1c8a4a_193de71e9d0_7356", "nom_ouvrage": "Forage", "source": "TDE", "type_source": "TdE", "region": "Maritime", "prefecture": "Agoè-Nyivé", "commune": "Agoè-Nyivé 1", "canton": "Agoè-Nyivé" }, "geometry": { "type": "Point", "coordinates": [ 1.200465, 6.206983333333333 ] } },
{ "type": "Feature", "properties": { "FID": "_mview_eau_forages_chateau_eau.fid-7b1c8a4a_193de71e9d0_7357", "nom_ouvrage": "Forage", "source": "TDE", "type_source": "TdE", "region": "Maritime", "prefecture": "Agoè-Nyivé", "commune": "Agoè-Nyivé 1", "canton": "Agoè-Nyivé" }, "geometry": { "type": "Point", "coordinates": [ 1.200398333333334, 6.207581666666664 ] } },
{ "type": "Feature", "properties": { "FID": "_mview_eau_forages_chateau_eau.fid-7b1c8a4a_193de71e9d0_7358", "nom_ouvrage": "Forage", "source": "TDE", "type_source": "TdE", "region": "Maritime", "prefecture": "Agoè-Nyivé", "commune": "Agoè-Nyivé 2", "canton": "Légbassito" }, "geometry": { "type": "Point", "coordinates": [ 1.156118333333334, 6.2731 ] } },
{ "type": "Feature", "properties": { "FID": "_mview_eau_forages_chateau_eau.fid-7b1c8a4a_193de71e9d0_7359", "nom_ouvrage": "Forage", "source": "TDE", "type_source": "TdE", "region": "Maritime", "prefecture": "Agoè-Nyivé", "commune": "Agoè-Nyivé 2", "canton": "Légbassito" }, "geometry": { "type": "Point", "coordinates": [ 1.162078333333333, 6.29845 ] } },
{ "type": "Feature", "properties": { "FID": "_mview_eau_forages_chateau_eau.fid-7b1c8a4a_193de71e9d0_735a", "nom_ouvrage": "Forage", "source": "TDE", "type_source": "TdE", "region": "Maritime", "prefecture": "Agoè-Nyivé", "commune": "Agoè-Nyivé 2", "canton": "Légbassito" }, "geometry": { "type": "Point", "coordinates": [ 1.164831666666667, 6.302976666666666 ] } },
{ "type": "Feature", "properties": { "FID": "_mview_eau_forages_chateau_eau.fid-7b1c8a4a_193de71e9d0_735b", "nom_ouvrage": "Forage", "source": "TDE", "type_source": "TdE", "region": "Maritime", "prefecture": "Agoè-Nyivé", "commune": "Agoè-Nyivé 3", "canton": "Vakpossito" }, "geometry": { "type": "Point", "coordinates": [ 1.177026666666667, 6.21339 ] } },
{ "type": "Feature", "properties": { "FID": "_mview_eau_forages_chateau_eau.fid-7b1c8a4a_193de71e9d0_735c", "nom_ouvrage": "Forage", "source": "TDE", "type_source": "TdE", "region": "Maritime", "prefecture": "Agoè-Nyivé", "commune": "Agoè-Nyivé 3", "canton": "Vakpossito" }, "geometry": { "type": "Point", "coordinates": [ 1.173691666666667, 6.218505 ] } },
{ "type": "Feature", "properties": { "FID": "_mview_eau_forages_chateau_eau.fid-7b1c8a4a_193de71e9d0_735d", "nom_ouvrage": "Forage", "source": "TDE", "type_source": "TdE", "region": "Maritime", "prefecture": "Agoè-Nyivé", "commune": "Agoè-Nyivé 3", "canton": "Vakpossito" }, "geometry": { "type": "Point", "coordinates": [ 1.173685, 6.218591666666667 ] } },
{ "type": "Feature", "properties": { "FID": "_mview_eau_forages_chateau_eau.fid-7b1c8a4a_193de71e9d0_735e", "nom_ouvrage": "Forage", "source": "TDE", "type_source": "TdE", "region": "Maritime", "prefecture": "Agoè-Nyivé", "commune": "Agoè-Nyivé 3", "canton": "Vakpossito" }, "geometry": { "type": "Point", "coordinates": [ 1.178995, 6.217398333333332 ] } },
{ "type": "Feature", "properties": { "FID": "_mview_eau_forages_chateau_eau.fid-7b1c8a4a_193de71e9d0_735f", "nom_ouvrage": "Nsp", "source": "TDE", "type_source": "TdE", "region": "Maritime", "prefecture": "Agoè-Nyivé", "commune": "Agoè-Nyivé 3", "canton": "Vakpossito" }, "geometry": { "type": "Point", "coordinates": [ 1.160828333333334, 6.218258333333333 ] } },
{ "type": "Feature", "properties": { "FID": "_mview_eau_forages_chateau_eau.fid-7b1c8a4a_193de71e9d0_7360", "nom_ouvrage": "Forage", "source": "TDE", "type_source": "TdE", "region": "Maritime", "prefecture": "Agoè-Nyivé", "commune": "Agoè-Nyivé 4", "canton": "Togblekope" }, "geometry": { "type": "Point", "coordinates": [ 1.209351666666667, 6.262661666666665 ] } },
{ "type": "Feature", "properties": { "FID": "_mview_eau_forages_chateau_eau.fid-7b1c8a4a_193de71e9d0_7361", "nom_ouvrage": "Forage", "source": "TDE", "type_source": "TdE", "region": "Maritime", "prefecture": "Agoè-Nyivé", "commune": "Agoè-Nyivé 4", "canton": "Togblekope" }, "geometry": { "type": "Point", "coordinates": [ 1.220286666666667, 6.263633333333332 ] } },
{ "type": "Feature", "properties": { "FID": "_mview_eau_forages_chateau_eau.fid-7b1c8a4a_193de71e9d0_7362", "nom_ouvrage": "Château de Dikame", "source": "TDE", "type_source": "TdE", "region": "Maritime", "prefecture": "Agoè-Nyivé", "commune": "Agoè-Nyivé 4", "canton": "Togblekope" }, "geometry": { "type": "Point", "coordinates": [ 1.23272, 6.244791666666666 ] } },
{ "type": "Feature", "properties": { "FID": "_mview_eau_forages_chateau_eau.fid-7b1c8a4a_193de71e9d0_7363", "nom_ouvrage": "Forage", "source": "TDE", "type_source": "TdE", "region": "Maritime", "prefecture": "Agoè-Nyivé", "commune": "Agoè-Nyivé 4", "canton": "Togblekope" }, "geometry": { "type": "Point", "coordinates": [ 1.211811666666667, 6.27798 ] } },
{ "type": "Feature", "properties": { "FID": "_mview_eau_forages_chateau_eau.fid-7b1c8a4a_193de71e9d0_7364", "nom_ouvrage": "Château de Fidokpui", "source": "TDE", "type_source": "TdE", "region": "Maritime", "prefecture": "Agoè-Nyivé", "commune": "Agoè-Nyivé 4", "canton": "Togblekope" }, "geometry": { "type": "Point", "coordinates": [ 1.22365, 6.261855 ] } },
{ "type": "Feature", "properties": { "FID": "_mview_eau_forages_chateau_eau.fid-7b1c8a4a_193de71e9d0_7365", "nom_ouvrage": "Forage", "source": "TDE", "type_source": "TdE", "region": "Maritime", "prefecture": "Agoè-Nyivé", "commune": "Agoè-Nyivé 4", "canton": "Togblekope" }, "geometry": { "type": "Point", "coordinates": [ 1.182025, 6.292586666666667 ] } },
{ "type": "Feature", "properties": { "FID": "_mview_eau_forages_chateau_eau.fid-7b1c8a4a_193de71e9d0_7366", "nom_ouvrage": "Forage B'16Bis", "source": "TDE", "type_source": "TdE", "region": "Maritime", "prefecture": "Agoè-Nyivé", "commune": "Agoè-Nyivé 6", "canton": "Adétikopé" }, "geometry": { "type": "Point", "coordinates": [ 1.207198333333334, 6.31472 ] } },
{ "type": "Feature", "properties": { "FID": "_mview_eau_forages_chateau_eau.fid-7b1c8a4a_193de71e9d0_7367", "nom_ouvrage": "Forage", "source": "TDE", "type_source": "TdE", "region": "Maritime", "prefecture": "Agoè-Nyivé", "commune": "Agoè-Nyivé 6", "canton": "Adétikopé" }, "geometry": { "type": "Point", "coordinates": [ 1.2135, 6.344771666666666 ] } },
{ "type": "Feature", "properties": { "FID": "_mview_eau_forages_chateau_eau.fid-7b1c8a4a_193de71e9d0_7368", "nom_ouvrage": "Forage", "source": "TDE", "type_source": "TdE", "region": "Maritime", "prefecture": "Agoè-Nyivé", "commune": "Agoè-Nyivé 6", "canton": "Adétikopé" }, "geometry": { "type": "Point", "coordinates": [ 1.21092, 6.323951666666668 ] } },
{ "type": "Feature", "properties": { "FID": "_mview_eau_forages_chateau_eau.fid-7b1c8a4a_193de71e9d0_7369", "nom_ouvrage": "Forage C'10", "source": "TDE", "type_source": "TdE", "region": "Maritime", "prefecture": "Agoè-Nyivé", "commune": "Agoè-Nyivé 6", "canton": "Adétikopé" }, "geometry": { "type": "Point", "coordinates": [ 1.219308333333333, 6.322853333333334 ] } },
{ "type": "Feature", "properties": { "FID": "_mview_eau_forages_chateau_eau.fid-7b1c8a4a_193de71e9d0_736a", "nom_ouvrage": "Forage", "source": "TDE", "type_source": "TdE", "region": "Maritime", "prefecture": "Agoè-Nyivé", "commune": "Agoè-Nyivé 6", "canton": "Adétikopé" }, "geometry": { "type": "Point", "coordinates": [ 1.19735, 6.316366666666667 ] } },
{ "type": "Feature", "properties": { "FID": "_mview_eau_forages_chateau_eau.fid-7b1c8a4a_193de71e9d0_736b", "nom_ouvrage": "Forage Massekope", "source": "TDE", "type_source": "TdE", "region": "Maritime", "prefecture": "Vo", "commune": "Vo 1", "canton": "Vogan" }, "geometry": { "type": "Point", "coordinates": [ 1.5386, 6.36603 ] } },
{ "type": "Feature", "properties": { "FID": "_mview_eau_forages_chateau_eau.fid-7b1c8a4a_193de71e9d0_736c", "nom_ouvrage": "Forage", "source": "TDE", "type_source": "TdE", "region": "Maritime", "prefecture": "Vo", "commune": "Vo 1", "canton": "Vogan" }, "geometry": { "type": "Point", "coordinates": [ 1.510528333333333, 6.285457635839358 ] } },
{ "type": "Feature", "properties": { "FID": "_mview_eau_forages_chateau_eau.fid-7b1c8a4a_193de71e9d0_736d", "nom_ouvrage": "Forage", "source": "TDE", "type_source": "TdE", "region": "Maritime", "prefecture": "Vo", "commune": "Vo 1", "canton": "Vogan" }, "geometry": { "type": "Point", "coordinates": [ 1.456863333333333, 6.333263333333334 ] } },
{ "type": "Feature", "properties": { "FID": "_mview_eau_forages_chateau_eau.fid-7b1c8a4a_193de71e9d0_736e", "nom_ouvrage": "Forage de Kpessou", "source": "TDE", "type_source": "TdE", "region": "Maritime", "prefecture": "Bas-Mono", "commune": "Bas-Mono 1", "canton": "Kpétsou" }, "geometry": { "type": "Point", "coordinates": [ 1.583853333333334, 6.523803333333333 ] } },
{ "type": "Feature", "properties": { "FID": "_mview_eau_forages_chateau_eau.fid-7b1c8a4a_193de71e9d0_736f", "nom_ouvrage": "Nsp", "source": "TDE", "type_source": "TdE", "region": "Maritime", "prefecture": "Vo", "commune": "Vo 1", "canton": "Vo-Koutimé" }, "geometry": { "type": "Point", "coordinates": [ 1.585586666666667, 6.334843333333333 ] } },
{ "type": "Feature", "properties": { "FID": "_mview_eau_forages_chateau_eau.fid-7b1c8a4a_193de71e9d0_7370", "nom_ouvrage": "Nsp", "source": "TDE", "type_source": "TdE", "region": "Maritime", "prefecture": "Vo", "commune": "Vo 1", "canton": "Vo-Koutimé" }, "geometry": { "type": "Point", "coordinates": [ 1.605856666666667, 6.378925 ] } },
{ "type": "Feature", "properties": { "FID": "_mview_eau_forages_chateau_eau.fid-7b1c8a4a_193de71e9d0_7371", "nom_ouvrage": "Nsp", "source": "TDE", "type_source": "TdE", "region": "Maritime", "prefecture": "Vo", "commune": "Vo 1", "canton": "Vo-Koutimé" }, "geometry": { "type": "Point", "coordinates": [ 1.55241, 6.35256 ] } },
{ "type": "Feature", "properties": { "FID": "_mview_eau_forages_chateau_eau.fid-7b1c8a4a_193de71e9d0_7372", "nom_ouvrage": "Forage", "source": "TDE", "type_source": "TdE", "region": "Maritime", "prefecture": "Vo", "commune": "Vo 2", "canton": "Togoville" }, "geometry": { "type": "Point", "coordinates": [ 1.518326933154162, 6.240244005855418 ] } },
{ "type": "Feature", "properties": { "FID": "_mview_eau_forages_chateau_eau.fid-7b1c8a4a_193de71e9d0_7373", "nom_ouvrage": "Nsp", "source": "TDE", "type_source": "TdE", "region": "Maritime", "prefecture": "Vo", "commune": "Vo 2", "canton": "Togoville" }, "geometry": { "type": "Point", "coordinates": [ 1.475731666666667, 6.240231666666666 ] } },
{ "type": "Feature", "properties": { "FID": "_mview_eau_forages_chateau_eau.fid-7b1c8a4a_193de71e9d0_7374", "nom_ouvrage": "Forage de Saint Jean de Dieu", "source": "TDE", "type_source": "TdE", "region": "Maritime", "prefecture": "Bas-Mono", "commune": "Bas-Mono 1", "canton": "Afagnangan" }, "geometry": { "type": "Point", "coordinates": [ 1.630853333333333, 6.49491 ] } },
{ "type": "Feature", "properties": { "FID": "_mview_eau_forages_chateau_eau.fid-7b1c8a4a_193de71e9d0_7375", "nom_ouvrage": "Forage du Château de Agbetiko", "source": "TDE", "type_source": "TdE", "region": "Maritime", "prefecture": "Bas-Mono", "commune": "Bas-Mono 2", "canton": "Agome-Glozou" }, "geometry": { "type": "Point", "coordinates": [ 1.687986666666667, 6.496021666666666 ] } },
{ "type": "Feature", "properties": { "FID": "_mview_eau_forages_chateau_eau.fid-7b1c8a4a_193de71e9d0_7376", "nom_ouvrage": "Nsp", "source": "TDE", "type_source": "TdE", "region": "Maritime", "prefecture": "Vo", "commune": "Vo 3", "canton": "Dagbati" }, "geometry": { "type": "Point", "coordinates": [ 1.492178333333333, 6.429775 ] } },
{ "type": "Feature", "properties": { "FID": "_mview_eau_forages_chateau_eau.fid-7b1c8a4a_193de71e9d0_7377", "nom_ouvrage": "Nsp", "source": "TDE", "type_source": "TdE", "region": "Maritime", "prefecture": "Vo", "commune": "Vo 3", "canton": "Dzrékpo" }, "geometry": { "type": "Point", "coordinates": [ 1.566766666666666, 6.454429275512832 ] } },
{ "type": "Feature", "properties": { "FID": "_mview_eau_forages_chateau_eau.fid-7b1c8a4a_193de71e9d0_7378", "nom_ouvrage": "Forage de Lankouvi", "source": "TDE", "type_source": "TdE", "region": "Maritime", "prefecture": "Golfe", "commune": "Golfe 7", "canton": "Aflao-Sagbado" }, "geometry": { "type": "Point", "coordinates": [ 1.126291666666666, 6.178793333333334 ] } },
{ "type": "Feature", "properties": { "FID": "_mview_eau_forages_chateau_eau.fid-7b1c8a4a_193de71e9d0_7379", "nom_ouvrage": "Forage de Kleme", "source": "TDE", "type_source": "TdE", "region": "Maritime", "prefecture": "Golfe", "commune": "Golfe 7", "canton": "Aflao-Sagbado" }, "geometry": { "type": "Point", "coordinates": [ 1.111235, 6.212123333333333 ] } },
{ "type": "Feature", "properties": { "FID": "_mview_eau_forages_chateau_eau.fid-7b1c8a4a_193de71e9d0_737a", "nom_ouvrage": "Forage de Aklakou", "source": "TDE", "type_source": "TdE", "region": "Maritime", "prefecture": "Lacs", "commune": "Lacs 2", "canton": "Aklakou" }, "geometry": { "type": "Point", "coordinates": [ 1.706518333333334, 6.331805 ] } },
{ "type": "Feature", "properties": { "FID": "_mview_eau_forages_chateau_eau.fid-7b1c8a4a_193de71e9d0_737b", "nom_ouvrage": "Forage de Attoeta", "source": "TDE", "type_source": "TdE", "region": "Maritime", "prefecture": "Lacs", "commune": "Lacs 4", "canton": "Fiata" }, "geometry": { "type": "Point", "coordinates": [ 1.663408333333333, 6.301435 ] } },
{ "type": "Feature", "properties": { "FID": "_mview_eau_forages_chateau_eau.fid-7b1c8a4a_193de71e9d0_737c", "nom_ouvrage": "Forage de Fiata", "source": "TDE", "type_source": "TdE", "region": "Maritime", "prefecture": "Lacs", "commune": "Lacs 4", "canton": "Ganavé" }, "geometry": { "type": "Point", "coordinates": [ 1.634243333333333, 6.327195 ] } },
{ "type": "Feature", "properties": { "FID": "_mview_eau_forages_chateau_eau.fid-7b1c8a4a_193de71e9d0_737d", "nom_ouvrage": "Forage", "source": "TDE", "type_source": "TdE", "region": "Maritime", "prefecture": "Zio", "commune": "Zio 1", "canton": "Dalavé" }, "geometry": { "type": "Point", "coordinates": [ 1.23862, 6.364176666666665 ] } },
{ "type": "Feature", "properties": { "FID": "_mview_eau_forages_chateau_eau.fid-7b1c8a4a_193de71e9d0_737e", "nom_ouvrage": "Forage", "source": "TDE", "type_source": "TdE", "region": "Maritime", "prefecture": "Zio", "commune": "Zio 1", "canton": "Dalavé" }, "geometry": { "type": "Point", "coordinates": [ 1.259591666666667, 6.378316666666665 ] } },
{ "type": "Feature", "properties": { "FID": "_mview_eau_forages_chateau_eau.fid-7b1c8a4a_193de71e9d0_737f", "nom_ouvrage": "Forage", "source": "TDE", "type_source": "TdE", "region": "Maritime", "prefecture": "Zio", "commune": "Zio 1", "canton": "Gbatopé" }, "geometry": { "type": "Point", "coordinates": [ 1.306855, 6.406038333333333 ] } },
{ "type": "Feature", "properties": { "FID": "_mview_eau_forages_chateau_eau.fid-7b1c8a4a_193de71e9d0_7380", "nom_ouvrage": "Forage", "source": "TDE", "type_source": "TdE", "region": "Maritime", "prefecture": "Zio", "commune": "Zio 1", "canton": "Gbatopé" }, "geometry": { "type": "Point", "coordinates": [ 1.310488333333333, 6.424141666666666 ] } },
{ "type": "Feature", "properties": { "FID": "_mview_eau_forages_chateau_eau.fid-7b1c8a4a_193de71e9d0_7381", "nom_ouvrage": "Forage", "source": "TDE", "type_source": "TdE", "region": "Maritime", "prefecture": "Zio", "commune": "Zio 1", "canton": "Gbatopé" }, "geometry": { "type": "Point", "coordinates": [ 1.302305, 6.41805 ] } },
{ "type": "Feature", "properties": { "FID": "_mview_eau_forages_chateau_eau.fid-7b1c8a4a_193de71e9d0_7382", "nom_ouvrage": "Forage", "source": "TDE", "type_source": "TdE", "region": "Maritime", "prefecture": "Zio", "commune": "Zio 1", "canton": "Gbatopé" }, "geometry": { "type": "Point", "coordinates": [ 1.310605, 6.42417 ] } },
{ "type": "Feature", "properties": { "FID": "_mview_eau_forages_chateau_eau.fid-7b1c8a4a_193de71e9d0_7383", "nom_ouvrage": "Forage", "source": "TDE", "type_source": "TdE", "region": "Maritime", "prefecture": "Zio", "commune": "Zio 1", "canton": "Gbatopé" }, "geometry": { "type": "Point", "coordinates": [ 1.310506666666667, 6.424131666666667 ] } },
{ "type": "Feature", "properties": { "FID": "_mview_eau_forages_chateau_eau.fid-7b1c8a4a_193de71e9d0_7384", "nom_ouvrage": "Forage", "source": "TDE", "type_source": "TdE", "region": "Maritime", "prefecture": "Zio", "commune": "Zio 1", "canton": "Gbatopé" }, "geometry": { "type": "Point", "coordinates": [ 1.293403333333334, 6.40355 ] } },
{ "type": "Feature", "properties": { "FID": "_mview_eau_forages_chateau_eau.fid-7b1c8a4a_193de71e9d0_7385", "nom_ouvrage": "Larini", "source": "TDE", "type_source": "TdE", "region": "Centrale", "prefecture": "Tchamba", "commune": "Tchamba 1", "canton": "Tchamba" }, "geometry": { "type": "Point", "coordinates": [ 1.410941666666667, 9.033538333333333 ] } },
{ "type": "Feature", "properties": { "FID": "_mview_eau_forages_chateau_eau.fid-7b1c8a4a_193de71e9d0_7386", "nom_ouvrage": "Forage de Kpeme", "source": "TDE", "type_source": "TdE", "region": "Maritime", "prefecture": "Lacs", "commune": "Lacs 3", "canton": "Agbodrafo" }, "geometry": { "type": "Point", "coordinates": [ 1.51378, 6.223778333333332 ] } },
{ "type": "Feature", "properties": { "FID": "_mview_eau_forages_chateau_eau.fid-7b1c8a4a_193de71e9d0_7387", "nom_ouvrage": "Forage de Château d'Eau", "source": "TDE", "type_source": "TdE", "region": "Plateaux", "prefecture": "Haho", "commune": "Haho 4", "canton": "Wahala" }, "geometry": { "type": "Point", "coordinates": [ 1.165571666666667, 7.178566666666669 ] } }
]
}
